{"type":"FeatureCollection","features":[{"type":"Feature","properties":{"name":"Alabama"},"geometry":{"type":"MultiLineString","coordinates":[[[-86.52,33.03],[-86.52,33.01],[-86.46,32.84],[-86.45,32.81]],[[-86.2,33.59],[-86.21,33.56],[-86.33,33.44]]]}},{"type":"Feature","properties":{"name":"Albany"},"geometry":{"type":"MultiLineString","coordinates":[[[-91.31,51.06],[-91.07,51.0],[-90.88,51.01],[-90.63,51.09],[-90.49,51.12],[-90.42,51.09]],[[-91.6,51.16],[-91.42,51.07]],[[-91.78,51.33],[-91.89,51.46]],[[-91.91,51.76],[-91.88,51.72],[-91.89,51.67],[-91.92,51.59],[-91.92,51.53],[-91.89,51.49]],[[-91.93,51.89],[-91.97,51.99]]]}},{"type":"Feature","properties":{"name":"Athabasca"},"geometry":{"type":"MultiLineString","coordinates":[[[-111.02,58.69],[-111.07,58.5]],[[-111.28,58.79],[-111.21,58.72],[-111.14,58.7],[-111.02,58.69]]]}},{"type":"Feature","properties":{"name":"Back"},"geometry":{"type":"MultiLineString","coordinates":[[[-108.53,64.56],[-108.18,64.69]],[[-108.09,64.72],[-107.98,64.72]],[[-98.66,65.93],[-98.68,66.0],[-98.72,66.02],[-98.78,66.01],[-98.87,66.03],[-98.99,66.08],[-99.13,66.06],[-99.28,65.99],[-99.47,65.93],[-99.69,65.89],[-99.85,65.89],[-99.95,65.91],[-100.12,65.91],[-100.35,65.88],[-100.58,65.87],[-100.8,65.9],[-100.97,65.9],[-101.1,65.88],[-101.31,65.89],[-101.77,65.95]],[[-97.27,65.97],[-96.99,66.15]]]}},{"type":"Feature","properties":{"name":"Chattahoochee"},"geometry":{"type":"MultiLineString","coordinates":[[[-84.97,30.92],[-84.89,30.76],[-84.88,30.72]],[[-85.07,31.64],[-85.12,31.78],[-85.12,31.88],[-85.06,32.05]],[[-83.81,34.36],[-84.08,34.17]]]}},{"type":"Feature","properties":{"name":"Churchill"},"geometry":{"type":"LineString","coordinates":[[-64.68,53.13],[-64.71,53.27],[-64.71,53.34],[-64.68,53.38]]}},{"type":"Feature","properties":{"name":"Colorado"},"geometry":{"type":"MultiLineString","coordinates":[[[-114.38,34.54],[-114.37,34.49],[-114.31,34.43],[-114.16,34.36],[-114.13,34.32],[-114.13,34.31],[-114.13,34.29],[-114.16,34.25]],[[-114.59,35.35],[-114.65,35.48],[-114.66,35.55],[-114.65,35.63]],[[-114.74,36.01],[-114.72,36.08],[-114.67,36.12],[-114.59,36.15],[-114.51,36.16],[-114.41,36.15],[-114.33,36.12],[-114.28,36.06],[-114.23,36.03],[-114.18,36.03],[-114.12,36.08],[-114.06,36.18],[-114.0,36.2],[-113.95,36.16],[-113.76,36.01],[-113.64,35.83]],[[-110.37,37.9],[-110.4,37.88],[-110.42,37.83],[-110.43,37.77],[-110.47,37.7],[-110.54,37.63],[-110.65,37.52],[-110.69,37.48],[-110.7,37.45],[-110.72,37.41],[-110.78,37.34],[-110.92,37.16],[-111.02,37.13],[-111.3,37.05],[-111.43,37.0],[-111.47,36.93]],[[-105.82,40.18],[-105.86,40.16]]]}},{"type":"Feature","properties":{"name":"Columbia"},"geometry":{"type":"MultiLineString","coordinates":[[[-118.07,48.66],[-118.17,48.51],[-118.2,48.4],[-118.17,48.23]],[[-118.09,49.8],[-118.13,49.66],[-118.13,49.57],[-118.1,49.48],[-118.01,49.4],[-117.91,49.34]],[[-117.91,50.68],[-117.92,50.46],[-117.89,50.34],[-117.84,50.23],[-117.83,50.16],[-117.88,50.1]],[[-117.52,51.66],[-117.87,51.87]],[[-118.53,52.1],[-118.37,52.09]]]}},{"type":"Feature","properties":{"name":"Coppermine"},"geometry":{"type":"MultiLineString","coordinates":[[[-112.34,64.9],[-112.05,64.78],[-111.96,64.71],[-111.97,64.64]],[[-114.17,65.64],[-114.31,65.64],[-114.35,65.61],[-114.37,65.54],[-114.29,65.5],[-114.13,65.46],[-114.03,65.43],[-114.01,65.38],[-113.79,65.34],[-113.36,65.3],[-113.03,65.25],[-112.78,65.2],[-112.6,65.18],[-112.48,65.19],[-112.39,65.14],[-112.32,65.03],[-112.29,64.97],[-112.32,64.96]]]}},{"type":"Feature","properties":{"name":"Klamath"},"geometry":{"type":"LineString","coordinates":[[-121.92,42.48],[-121.92,42.42],[-121.81,42.25]]}},{"type":"Feature","properties":{"name":"La Grande"},"geometry":{"type":"MultiLineString","coordinates":[[[-70.84,53.43],[-70.95,53.44],[-70.99,53.47],[-71.01,53.52],[-71.04,53.56],[-71.12,53.59]],[[-72.03,53.6],[-71.93,53.57],[-71.87,53.58],[-71.82,53.65]],[[-74.43,53.68],[-74.7,53.63],[-74.85,53.63],[-74.97,53.65],[-75.24,53.66],[-75.62,53.67],[-75.8,53.66],[-75.89,53.71],[-76.14,53.7],[-76.66,53.67],[-77.04,53.68],[-77.2,53.7],[-77.31,53.73],[-77.42,53.8]]]}},{"type":"Feature","properties":{"name":"Mackenzie"},"geometry":{"type":"LineString","coordinates":[[-117.67,61.31],[-117.22,61.15],[-116.83,61.08],[-116.33,61.05],[-116.0,61.05],[-115.81,61.07],[-115.5,61.16],[-115.07,61.3],[-114.57,61.34],[-113.7,61.25]]}},{"type":"Feature","properties":{"name":"Madison"},"geometry":{"type":"LineString","coordinates":[[-111.1,44.76],[-111.12,44.76],[-111.19,44.77],[-111.24,44.8],[-111.3,44.86],[-111.31,44.87]]}},{"type":"Feature","properties":{"name":"Mississippi"},"geometry":{"type":"MultiLineString","coordinates":[[[-94.33,47.41],[-94.2,47.46],[-94.14,47.46],[-94.09,47.43]],[[-94.51,47.46],[-94.64,47.44]]]}},{"type":"Feature","properties":{"name":"Missouri"},"geometry":{"type":"MultiLineString","coordinates":[[[-99.36,43.99],[-99.33,43.89],[-99.35,43.82],[-99.43,43.73],[-99.44,43.67],[-99.39,43.65],[-99.35,43.6],[-99.31,43.51],[-99.2,43.41],[-99.0,43.3],[-98.89,43.22],[-98.88,43.19],[-98.8,43.15],[-98.56,43.06]],[[-111.52,46.36],[-111.54,46.47],[-111.59,46.54],[-111.7,46.66]],[[-100.78,46.71],[-100.63,46.61],[-100.57,46.51],[-100.56,46.39],[-100.57,46.29],[-100.61,46.2],[-100.56,46.04],[-100.4,45.82],[-100.37,45.71],[-100.37,45.67],[-100.4,45.64],[-100.43,45.61],[-100.44,45.56],[-100.43,45.53],[-100.41,45.5],[-100.34,45.45],[-100.3,45.32],[-100.3,45.13],[-100.32,45.05],[-100.35,45.04],[-100.38,45.03],[-100.4,44.99],[-100.41,44.92],[-100.44,44.85],[-100.5,44.8],[-100.58,44.78],[-100.68,44.8],[-100.69,44.79],[-100.7,44.78],[-100.66,44.73],[-100.64,44.68],[-100.63,44.62],[-100.61,44.58],[-100.56,44.56],[-100.56,44.53],[-100.56,44.5],[-100.54,44.48],[-100.42,44.45],[-100.39,44.43]],[[-101.4,47.51],[-101.43,47.55],[-101.55,47.56],[-101.77,47.53],[-101.98,47.55],[-102.16,47.6],[-102.27,47.67],[-102.3,47.76],[-102.35,47.8],[-102.41,47.79],[-102.49,47.79],[-102.59,47.82],[-102.62,47.88],[-102.58,47.97],[-102.61,48.04],[-102.72,48.1],[-102.87,48.14],[-103.06,48.15],[-103.18,48.14],[-103.23,48.09],[-103.31,48.06],[-103.41,48.04],[-103.5,48.05],[-103.56,48.11],[-103.63,48.11],[-103.77,48.03]],[[-106.41,48.02],[-106.52,47.89],[-106.6,47.82],[-106.88,47.71],[-107.04,47.69],[-107.26,47.71],[-107.38,47.69],[-107.41,47.66],[-107.47,47.64],[-107.58,47.65],[-107.69,47.61],[-107.81,47.51],[-107.89,47.5],[-107.94,47.58],[-108.02,47.6],[-108.2,47.6]]]}},{"type":"Feature","properties":{"name":"Nelson"},"geometry":{"type":"MultiLineString","coordinates":[[[-96.6,50.98],[-96.6,51.31],[-96.63,51.48],[-96.7,51.61],[-96.95,51.86],[-97.38,52.23],[-97.64,52.53],[-97.75,52.77],[-97.83,53.04],[-97.91,53.52],[-97.87,53.71],[-97.91,53.78],[-97.98,53.84],[-98.02,53.89],[-98.01,53.92],[-98.01,53.97],[-97.99,53.99],[-97.91,54.0],[-97.8,54.03],[-97.73,54.08]],[[-97.9,54.7],[-97.79,54.57]],[[-97.95,54.95],[-97.25,55.24]],[[-96.55,56.06],[-96.5,56.11],[-96.42,56.13],[-96.28,56.14],[-96.2,56.17],[-96.15,56.22],[-96.06,56.25],[-95.84,56.29]],[[-95.43,56.34],[-94.78,56.39]]]}},{"type":"Feature","properties":{"name":"Ottawa"},"geometry":{"type":"LineString","coordinates":[[-79.17,46.83],[-79.36,47.02],[-79.43,47.13],[-79.44,47.23],[-79.48,47.32],[-79.55,47.41],[-79.56,47.48],[-79.5,47.58]]}},{"type":"Feature","properties":{"name":"Peace"},"geometry":{"type":"MultiLineString","coordinates":[[[-122.22,56.02],[-122.48,56.11],[-122.69,56.12],[-122.93,56.09],[-123.09,56.05],[-123.15,56.01],[-123.32,56.0],[-123.6,56.03],[-123.8,56.03],[-123.91,56.01],[-124.08,56.08],[-124.31,56.26],[-124.45,56.39],[-124.52,56.48],[-124.62,56.59],[-124.84,56.76]],[[-113.82,58.71],[-113.71,58.67]]]}},{"type":"Feature","properties":{"name":"Pit"},"geometry":{"type":"LineString","coordinates":[[-122.09,40.78],[-122.37,40.76]]}},{"type":"Feature","properties":{"name":"R. des Outaouais"},"geometry":{"type":"MultiLineString","coordinates":[[[-77.46,47.56],[-77.47,47.57],[-77.48,47.59],[-77.53,47.6],[-77.59,47.58],[-77.61,47.58],[-77.62,47.6],[-77.54,47.67]],[[-77.32,47.57],[-77.3,47.56],[-77.27,47.53],[-77.22,47.51],[-77.16,47.53],[-77.11,47.53],[-77.09,47.49],[-77.04,47.48],[-76.93,47.49]],[[-78.72,47.68],[-78.74,47.67],[-78.81,47.66]],[[-77.53,47.74],[-77.53,47.77],[-77.54,47.82],[-77.57,47.83]]]}},{"type":"Feature","properties":{"name":"Rainy"},"geometry":{"type":"MultiLineString","coordinates":[[[-93.38,48.62],[-92.78,48.68]],[[-91.32,48.83],[-91.44,48.9],[-91.52,48.91],[-91.63,48.87]]]}},{"type":"Feature","properties":{"name":"Rio Grande"},"geometry":{"type":"MultiLineString","coordinates":[[[-99.46,27.06],[-99.44,27.04],[-99.3,26.88],[-99.23,26.76],[-99.17,26.56]],[[-101.04,29.46],[-101.3,29.63]],[[-107.29,32.91],[-107.28,33.11]],[[-107.18,33.17],[-107.17,33.36]]]}},{"type":"Feature","properties":{"name":"Rupert"},"geometry":{"type":"MultiLineString","coordinates":[[[-76.82,51.42],[-76.78,51.35],[-76.73,51.34],[-76.55,51.36]],[[-75.2,51.45],[-75.09,51.44],[-75.0,51.42],[-74.95,51.37],[-74.9,51.37],[-74.82,51.41]]]}},{"type":"Feature","properties":{"name":"R\u00edo Grande de Santiago"},"geometry":{"type":"MultiLineString","coordinates":[[[-102.78,20.31],[-102.77,20.2]],[[-103.71,20.94],[-103.59,20.97]],[[-105.1,21.82],[-105.06,21.81],[-105.03,21.78]]]}},{"type":"Feature","properties":{"name":"Sacramento"},"geometry":{"type":"LineString","coordinates":[[-122.37,40.76],[-122.41,40.72]]}},{"type":"Feature","properties":{"name":"San Joaquin"},"geometry":{"type":"LineString","coordinates":[[-119.7,37.0],[-119.6,37.06]]}},{"type":"Feature","properties":{"name":"Saskatchewan"},"geometry":{"type":"MultiLineString","coordinates":[[[-99.23,53.19],[-98.42,53.35],[-98.08,53.44],[-97.91,53.52]],[[-100.32,53.59],[-100.16,53.5],[-100.07,53.41],[-99.98,53.27],[-99.85,53.21],[-99.69,53.24],[-99.54,53.23],[-99.33,53.16]],[[-103.42,53.65],[-103.58,53.63],[-103.7,53.59],[-103.89,53.48]],[[-102.44,53.98],[-102.38,53.97]]]}},{"type":"Feature","properties":{"name":"Savannah"},"geometry":{"type":"LineString","coordinates":[[-82.59,34.02],[-82.35,33.84],[-82.26,33.75],[-82.21,33.66]]}},{"type":"Feature","properties":{"name":"Snake"},"geometry":{"type":"MultiLineString","coordinates":[[[-113.32,42.65],[-113.47,42.68]],[[-112.86,42.81],[-112.64,43.02]],[[-111.05,43.21],[-111.09,43.23],[-111.19,43.34]]]}},{"type":"Feature","properties":{"name":"South Saskatchewan"},"geometry":{"type":"LineString","coordinates":[[-106.85,51.26],[-106.69,51.13],[-106.69,51.07],[-106.8,51.05],[-106.9,50.96],[-106.99,50.82],[-107.16,50.72],[-107.42,50.66],[-107.66,50.64],[-108.01,50.66]]}},{"type":"Feature","properties":{"name":"Tennessee"},"geometry":{"type":"MultiLineString","coordinates":[[[-86.9,34.57],[-87.24,34.75],[-87.4,34.82],[-87.49,34.83],[-87.57,34.82],[-87.7,34.77]],[[-87.98,35.95],[-88.0,35.96],[-87.99,36.01],[-87.95,36.1],[-87.96,36.22],[-88.02,36.36],[-88.06,36.48],[-88.06,36.59],[-88.11,36.74],[-88.28,37.02]]]}},{"type":"Feature","properties":{"name":"Teslin"},"geometry":{"type":"LineString","coordinates":[[-132.1,59.61],[-132.35,59.92],[-132.55,60.07],[-132.76,60.16],[-132.96,60.26],[-133.24,60.45]]}},{"type":"Feature","properties":{"name":"Thelon"},"geometry":{"type":"MultiLineString","coordinates":[[[-104.83,63.07],[-104.73,63.13],[-104.7,63.18],[-104.71,63.27]],[[-96.27,64.3],[-95.45,64.16],[-95.05,64.16],[-94.81,64.13],[-94.6,64.06],[-94.43,64.04],[-94.22,64.08]],[[-101.81,64.41],[-101.54,64.49]],[[-97.1,64.76],[-97.16,64.71],[-97.29,64.72],[-97.51,64.75],[-97.77,64.74],[-98.08,64.69],[-98.26,64.67],[-98.33,64.68],[-98.38,64.65],[-98.43,64.58],[-98.49,64.56],[-98.56,64.56],[-98.69,64.54],[-98.86,64.49],[-99.0,64.49],[-99.1,64.55],[-99.29,64.58],[-99.57,64.58],[-99.79,64.6],[-99.95,64.64],[-100.09,64.63],[-100.21,64.59],[-100.4,64.57],[-100.8,64.6]]]}},{"type":"Feature","properties":{"name":"Tugaloo"},"geometry":{"type":"LineString","coordinates":[[-83.17,34.6],[-83.05,34.51],[-82.98,34.48],[-82.9,34.47],[-82.85,34.44],[-82.82,34.37]]}},{"type":"Feature","properties":{"name":"Winnipeg"},"geometry":{"type":"MultiLineString","coordinates":[[[-94.61,49.99],[-94.51,49.71],[-94.55,49.57],[-94.7,49.5],[-94.8,49.42],[-94.85,49.36],[-94.86,49.26],[-94.84,49.12],[-94.8,49.0],[-94.71,48.86]],[[-96.03,50.28],[-95.99,50.4]],[[-96.6,50.98],[-96.47,50.77],[-96.39,50.69],[-96.29,50.62]]]}},{"type":"Feature","properties":{"name":""},"geometry":{"type":"MultiLineString","coordinates":[[[-103.79,58.69],[-103.67,58.54]],[[-111.02,58.69],[-110.8,58.74],[-110.64,58.82],[-110.45,58.94],[-110.26,59.03],[-110.06,59.1],[-109.77,59.18],[-109.39,59.27],[-109.1,59.3],[-108.92,59.28],[-108.52,59.3],[-107.9,59.35],[-107.51,59.36],[-107.36,59.33],[-106.97,59.3],[-106.02,59.27]],[[-105.55,59.15],[-105.25,59.19],[-105.11,59.2],[-105.01,59.17]]]}},{"type":"Feature","properties":{"name":""},"geometry":{"type":"MultiLineString","coordinates":[[[-103.22,61.68],[-103.19,61.64],[-103.22,61.61],[-103.31,61.57],[-103.37,61.5],[-103.45,61.37]],[[-102.92,62.32],[-102.91,62.28],[-102.86,62.26],[-102.78,62.24],[-102.73,62.22],[-102.71,62.18],[-102.78,62.13],[-102.94,62.06],[-103.05,61.98],[-103.16,61.84]],[[-100.55,62.36],[-100.07,62.23],[-99.84,62.21],[-99.62,62.3]],[[-101.16,62.37],[-100.73,62.36]],[[-101.83,62.52],[-101.85,62.45],[-101.83,62.39],[-101.78,62.31],[-101.65,62.29],[-101.37,62.35]],[[-98.35,62.62],[-98.24,62.72],[-98.08,62.75],[-97.84,62.76],[-97.7,62.82],[-97.63,62.98]],[[-101.53,62.66],[-101.54,62.79],[-101.58,62.86],[-101.66,62.92],[-101.78,62.94],[-102.03,62.92]],[[-102.66,62.76],[-102.68,62.69],[-102.67,62.64],[-102.62,62.58],[-102.63,62.52],[-102.74,62.41]],[[-97.46,63.16],[-97.29,63.51]],[[-95.88,63.66],[-96.3,63.61],[-96.57,63.61],[-96.95,63.64]],[[-95.5,64.05],[-95.45,64.16]]]}},{"type":"Feature","properties":{"name":"Alabama"},"geometry":{"type":"MultiLineString","coordinates":[[[-86.45,32.81],[-86.27,32.62],[-86.24,32.53],[-86.31,32.46],[-86.33,32.42],[-86.34,32.41],[-86.37,32.42],[-86.42,32.41],[-86.48,32.37],[-86.54,32.36],[-86.6,32.39],[-86.65,32.4],[-86.68,32.37],[-86.72,32.37],[-86.76,32.38],[-86.79,32.37],[-86.8,32.35],[-86.81,32.35],[-86.82,32.36],[-86.84,32.41],[-86.86,32.42],[-86.87,32.42],[-86.91,32.38],[-86.95,32.37],[-86.99,32.4],[-87.02,32.4],[-87.06,32.39],[-87.06,32.37],[-87.03,32.34],[-87.05,32.32],[-87.12,32.3],[-87.14,32.26],[-87.11,32.21],[-87.13,32.18],[-87.21,32.17],[-87.25,32.14],[-87.25,32.09],[-87.29,32.09],[-87.35,32.13],[-87.41,32.11],[-87.45,32.04],[-87.45,31.98],[-87.41,31.94],[-87.42,31.92],[-87.48,31.9],[-87.49,31.87],[-87.45,31.82],[-87.46,31.76],[-87.52,31.71],[-87.54,31.66],[-87.52,31.6],[-87.53,31.56],[-87.58,31.53],[-87.6,31.5],[-87.59,31.45],[-87.63,31.41],[-87.72,31.38],[-87.79,31.32],[-87.85,31.21],[-87.89,31.16],[-87.92,31.15],[-87.94,31.14],[-87.95,31.12],[-87.95,30.92],[-87.97,30.83],[-88.01,30.8],[-88.02,30.76],[-88.01,30.69]],[[-86.33,33.44],[-86.37,33.42],[-86.38,33.38],[-86.37,33.33],[-86.4,33.28],[-86.46,33.23],[-86.48,33.19],[-86.47,33.16],[-86.48,33.11],[-86.52,33.06],[-86.52,33.03]],[[-85.18,34.26],[-85.5,34.21],[-85.66,34.2],[-85.7,34.2],[-85.73,34.19],[-85.73,34.17],[-85.71,34.15],[-85.71,34.13],[-85.73,34.11],[-85.77,34.11],[-85.81,34.11],[-85.84,34.1],[-85.85,34.08],[-85.86,34.06],[-85.88,34.06],[-85.9,34.05],[-85.9,34.03],[-85.92,34.01],[-85.95,34.01],[-85.96,33.99],[-85.97,33.97],[-85.98,33.94],[-86.03,33.93],[-86.05,33.89],[-86.05,33.81],[-86.08,33.75],[-86.16,33.71],[-86.19,33.67],[-86.19,33.62],[-86.2,33.59]]]}},{"type":"Feature","properties":{"name":"Albany"},"geometry":{"type":"MultiLineString","coordinates":[[[-91.42,51.07],[-91.31,51.06]],[[-90.42,51.09],[-89.86,51.2],[-89.59,51.28],[-89.42,51.37],[-89.29,51.42],[-89.2,51.43],[-89.14,51.46],[-89.1,51.51],[-89.06,51.51],[-89.0,51.47],[-88.91,51.48],[-88.8,51.54],[-88.69,51.57],[-88.58,51.57],[-88.51,51.55],[-88.47,51.51],[-88.33,51.49],[-88.09,51.49],[-87.85,51.43],[-87.62,51.31],[-87.45,51.26],[-87.32,51.27],[-87.2,51.31],[-87.07,51.38],[-86.94,51.41],[-86.82,51.41],[-86.7,51.44],[-86.53,51.53],[-86.44,51.58],[-86.4,51.63],[-86.38,51.7],[-86.35,51.75],[-86.31,51.77],[-86.25,51.78],[-86.18,51.77],[-86.09,51.73],[-86.0,51.67],[-85.84,51.65],[-85.62,51.66],[-85.4,51.6],[-85.19,51.47],[-85.08,51.38],[-85.05,51.32],[-84.91,51.25],[-84.64,51.16],[-84.46,51.14],[-84.36,51.2],[-84.08,51.3],[-83.61,51.43],[-83.31,51.57],[-83.18,51.71],[-83.04,51.82],[-82.89,51.9],[-82.76,51.94],[-82.63,51.94],[-82.51,51.99],[-82.38,52.06],[-82.25,52.11],[-82.05,52.14],[-81.88,52.19],[-81.83,52.22]],[[-91.78,51.34],[-91.72,51.28],[-91.68,51.26],[-91.66,51.24],[-91.65,51.21],[-91.64,51.19],[-91.6,51.16]],[[-91.89,51.49],[-91.89,51.46]],[[-91.93,51.89],[-91.91,51.76]],[[-92.3,51.97],[-92.24,51.95],[-92.15,51.95],[-91.97,51.99]]]}},{"type":"Feature","properties":{"name":"Allegheny"},"geometry":{"type":"LineString","coordinates":[[-77.86,41.83],[-78.0,41.78],[-78.08,41.77],[-78.2,41.79],[-78.33,41.88],[-78.37,41.94],[-78.35,42.01],[-78.42,42.06],[-78.57,42.08],[-78.67,42.11],[-78.72,42.14],[-78.8,42.13],[-78.89,42.06],[-78.95,41.98],[-78.98,41.9],[-79.06,41.85],[-79.2,41.83],[-79.31,41.79],[-79.38,41.71],[-79.42,41.65],[-79.42,41.57],[-79.45,41.51],[-79.51,41.48],[-79.61,41.47],[-79.7,41.45],[-79.78,41.41],[-79.81,41.37],[-79.79,41.35],[-79.8,41.33],[-79.83,41.3],[-79.82,41.26],[-79.75,41.22],[-79.68,41.15],[-79.62,41.07],[-79.6,41.01],[-79.62,40.99],[-79.59,40.97],[-79.52,40.94],[-79.51,40.91],[-79.54,40.82],[-79.7,40.64],[-79.83,40.52],[-79.95,40.46],[-79.99,40.45]]}},{"type":"Feature","properties":{"name":"Arkansas"},"geometry":{"type":"LineString","coordinates":[[-91.08,33.8],[-91.12,33.82],[-91.15,33.86],[-91.17,33.92],[-91.22,33.95],[-91.3,33.96],[-91.32,33.97],[-91.33,33.99],[-91.34,34.0],[-91.39,34.01],[-91.42,34.03],[-91.44,34.07],[-91.49,34.09],[-91.56,34.1],[-91.68,34.15],[-91.84,34.25],[-91.92,34.27],[-91.94,34.27],[-91.97,34.27],[-92.02,34.32],[-92.11,34.45],[-92.16,34.57],[-92.16,34.67],[-92.23,34.76],[-92.37,34.82],[-92.45,34.88],[-92.47,34.93],[-92.51,34.97],[-92.56,34.99],[-92.58,35.03],[-92.56,35.1],[-92.59,35.12],[-92.71,35.09],[-92.83,35.16],[-92.93,35.18],[-93.05,35.18],[-93.19,35.24],[-93.36,35.36],[-93.52,35.41],[-93.68,35.4],[-93.8,35.42],[-93.86,35.48],[-93.96,35.49],[-94.08,35.47],[-94.14,35.43],[-94.14,35.4],[-94.16,35.37],[-94.2,35.37],[-94.27,35.39],[-94.36,35.43],[-94.43,35.42],[-94.48,35.34],[-94.53,35.31],[-94.57,35.33],[-94.6,35.33],[-94.64,35.3],[-94.67,35.3],[-94.69,35.33],[-94.79,35.38],[-94.96,35.43],[-95.07,35.49],[-95.14,35.56],[-95.19,35.6],[-95.23,35.61],[-95.24,35.64],[-95.24,35.7],[-95.25,35.75],[-95.29,35.78],[-95.39,35.79],[-95.54,35.79],[-95.63,35.82],[-95.64,35.87],[-95.72,35.92],[-95.86,35.97],[-95.96,36.03],[-96.0,36.11],[-96.08,36.15],[-96.2,36.15],[-96.26,36.17],[-96.27,36.21],[-96.32,36.26],[-96.41,36.3],[-96.48,36.32],[-96.52,36.31],[-96.54,36.33],[-96.54,36.38],[-96.58,36.41],[-96.66,36.43],[-96.71,36.47],[-96.74,36.54],[-96.77,36.54],[-96.81,36.53],[-96.87,36.49],[-96.92,36.47],[-96.96,36.47],[-96.99,36.49],[-97.0,36.51],[-96.98,36.54],[-96.94,36.57],[-96.94,36.58],[-96.96,36.59],[-97.0,36.59],[-97.04,36.62],[-97.05,36.66],[-96.99,36.71],[-96.86,36.74],[-96.84,36.77],[-96.84,36.78],[-96.88,36.8],[-96.91,36.87],[-96.93,36.98],[-96.99,37.06],[-97.07,37.1],[-97.13,37.19],[-97.17,37.33],[-97.24,37.5],[-97.34,37.69],[-97.69,37.93],[-98.29,38.2],[-98.63,38.35],[-98.73,38.35],[-98.85,38.31],[-99.01,38.22],[-99.22,38.05],[-99.47,37.8],[-99.7,37.7],[-99.99,37.75],[-100.78,37.93],[-101.13,37.97],[-101.3,37.92],[-101.63,37.95],[-102.1,38.07],[-102.56,38.12],[-103.02,38.11],[-103.32,38.08],[-103.47,38.04],[-103.59,38.05],[-103.7,38.1],[-103.83,38.14],[-104.08,38.17],[-104.24,38.24],[-104.41,38.26],[-104.65,38.26],[-104.83,38.3],[-104.94,38.37],[-105.09,38.43],[-105.28,38.46],[-105.47,38.45],[-105.65,38.4],[-105.83,38.43],[-106.0,38.53],[-106.09,38.61],[-106.09,38.68],[-106.14,38.8],[-106.29,39.08],[-106.38,39.22]]}},{"type":"Feature","properties":{"name":"Athabasca"},"geometry":{"type":"MultiLineString","coordinates":[[[-117.57,52.17],[-117.54,52.21],[-117.55,52.27],[-117.64,52.46],[-117.67,52.54],[-117.73,52.58],[-117.81,52.61],[-117.86,52.65],[-117.88,52.7],[-117.93,52.76],[-118.01,52.81],[-118.05,52.87],[-118.04,52.93],[-118.05,52.98],[-118.08,53.02],[-118.04,53.11],[-117.91,53.26],[-117.68,53.42],[-117.35,53.57],[-117.18,53.68],[-117.17,53.74],[-117.17,53.78],[-117.19,53.8],[-117.17,53.84],[-117.11,53.91],[-116.92,54.01],[-116.62,54.15],[-116.41,54.23],[-116.31,54.24],[-116.13,54.22],[-115.87,54.17],[-115.61,54.15],[-115.37,54.15],[-115.18,54.2],[-115.02,54.28],[-114.86,54.33],[-114.69,54.34],[-114.54,54.39],[-114.4,54.48],[-114.33,54.57],[-114.34,54.64],[-114.27,54.8],[-114.05,55.17]],[[-114.04,55.17],[-113.76,55.23],[-113.6,55.17],[-113.47,55.02],[-113.41,54.9],[-113.44,54.82],[-113.41,54.77],[-113.32,54.75],[-113.26,54.77],[-113.21,54.85],[-113.08,54.91],[-112.85,54.96],[-112.73,55.0],[-112.74,55.03],[-112.77,55.05],[-112.83,55.07],[-112.85,55.12],[-112.82,55.2],[-112.77,55.26],[-112.71,55.29],[-112.71,55.38],[-112.76,55.54],[-112.74,55.65],[-112.64,55.72],[-112.61,55.79],[-112.65,55.87],[-112.66,55.95],[-112.64,56.03],[-112.61,56.1],[-112.56,56.16],[-112.58,56.26],[-112.68,56.37],[-112.65,56.46],[-112.48,56.54],[-112.26,56.57],[-111.97,56.57],[-111.73,56.61],[-111.52,56.69],[-111.42,56.8],[-111.44,56.93],[-111.49,57.02],[-111.56,57.09],[-111.61,57.17],[-111.65,57.26],[-111.66,57.34],[-111.64,57.4],[-111.57,57.51],[-111.44,57.68],[-111.38,57.81],[-111.41,57.88],[-111.4,57.95],[-111.36,58.0],[-111.35,58.05],[-111.37,58.08],[-111.38,58.12],[-111.37,58.17],[-111.39,58.21],[-111.45,58.24],[-111.5,58.29],[-111.52,58.37],[-111.51,58.41],[-111.49,58.43],[-111.37,58.45],[-111.17,58.45],[-111.07,58.47],[-111.07,58.5]],[[-111.28,58.79],[-111.2,58.89],[-111.23,58.95],[-111.41,59.01]]]}},{"type":"Feature","properties":{"name":"Back"},"geometry":{"type":"MultiLineString","coordinates":[[[-108.83,64.56],[-108.53,64.56]],[[-108.18,64.69],[-108.09,64.72]],[[-107.98,64.72],[-107.85,64.75],[-107.77,64.8],[-107.71,64.88],[-107.6,64.95],[-107.45,65.03],[-107.37,65.11],[-107.37,65.18],[-107.38,65.24],[-107.41,65.3],[-107.36,65.37],[-107.24,65.45],[-107.1,65.48],[-106.95,65.46],[-106.8,65.4],[-106.65,65.3],[-106.46,65.25],[-106.24,65.24],[-106.13,65.23],[-106.11,65.2],[-105.9,65.16],[-105.28,65.08],[-105.01,65.07],[-104.65,65.11],[-104.11,65.2],[-103.71,65.28],[-103.44,65.37],[-103.28,65.44],[-103.23,65.51],[-103.16,65.56],[-103.06,65.58],[-102.81,65.6],[-102.41,65.6],[-102.18,65.63],[-102.11,65.68],[-102.1,65.72],[-102.14,65.77],[-102.07,65.83],[-101.77,65.95]],[[-98.66,65.93],[-98.6,65.88],[-98.54,65.89],[-98.46,65.92],[-98.36,65.93],[-98.23,65.91],[-98.15,65.93],[-98.12,65.97],[-98.06,66.0],[-97.98,66.02],[-97.86,66.01],[-97.7,65.96],[-97.53,65.95],[-97.27,65.97]],[[-97.0,66.15],[-96.65,66.09],[-96.48,66.09],[-96.34,66.14],[-96.19,66.21],[-96.02,66.3],[-95.9,66.39],[-95.83,66.47],[-95.8,66.53],[-95.8,66.62]]]}},{"type":"Feature","properties":{"name":"Brazos"},"geometry":{"type":"LineString","coordinates":[[-100.5,32.9],[-100.44,32.96],[-100.32,32.99],[-100.11,33.03],[-100.0,33.09],[-99.97,33.16],[-99.96,33.25],[-99.99,33.34],[-99.89,33.43],[-99.68,33.53],[-99.49,33.58],[-99.34,33.58],[-99.25,33.56],[-99.22,33.5],[-99.18,33.47],[-99.13,33.47],[-99.08,33.44],[-99.05,33.38],[-99.02,33.36],[-99.0,33.37],[-98.97,33.35],[-98.95,33.31],[-98.88,33.25],[-98.7,33.14],[-98.71,33.08],[-98.69,33.04],[-98.65,32.99],[-98.61,32.99],[-98.58,33.03],[-98.52,33.03],[-98.43,32.99],[-98.41,32.95],[-98.44,32.91],[-98.43,32.88],[-98.4,32.85],[-98.34,32.84],[-98.26,32.85],[-98.2,32.84],[-98.17,32.78],[-98.18,32.75],[-98.19,32.74],[-98.19,32.72],[-98.16,32.7],[-97.97,32.65],[-97.85,32.57],[-97.79,32.48],[-97.72,32.42],[-97.64,32.38],[-97.62,32.36],[-97.68,32.34],[-97.7,32.3],[-97.68,32.26],[-97.63,32.21],[-97.55,32.17],[-97.5,32.16],[-97.47,32.17],[-97.46,32.16],[-97.46,32.15],[-97.47,32.09],[-97.42,32.0],[-97.31,31.89],[-97.26,31.81],[-97.26,31.75],[-97.19,31.66],[-97.06,31.54],[-96.97,31.42],[-96.9,31.24],[-96.65,30.79],[-96.51,30.61],[-96.39,30.55],[-96.32,30.49],[-96.29,30.41],[-96.24,30.38],[-96.18,30.38],[-96.13,30.36],[-96.09,30.32],[-96.1,30.26],[-96.15,30.16],[-96.15,30.09],[-96.11,30.04],[-96.08,29.93],[-96.06,29.76],[-96.03,29.67],[-95.98,29.65],[-95.91,29.63],[-95.76,29.6],[-95.66,29.56],[-95.6,29.51],[-95.57,29.42],[-95.57,29.3],[-95.59,29.21],[-95.62,29.14],[-95.57,29.07],[-95.44,29.0],[-95.38,28.95],[-95.39,28.9]]}},{"type":"Feature","properties":{"name":"Chattahoochee"},"geometry":{"type":"MultiLineString","coordinates":[[[-84.89,30.72],[-84.89,30.67],[-84.96,30.57],[-85.08,30.27],[-85.12,30.17],[-85.11,30.08],[-85.04,30.0],[-85.02,29.91],[-85.03,29.82],[-85.02,29.77],[-84.97,29.75]],[[-85.07,31.64],[-85.05,31.57],[-85.09,31.3],[-85.07,31.12],[-84.97,30.92]],[[-84.08,34.17],[-84.11,34.09],[-84.15,34.04],[-84.23,34.0],[-84.29,33.98],[-84.34,34.0],[-84.43,33.93],[-84.57,33.77],[-84.73,33.62],[-84.92,33.5],[-85.04,33.4],[-85.08,33.32],[-85.09,33.25],[-85.07,33.18],[-85.1,33.11],[-85.16,33.02],[-85.18,32.94],[-85.16,32.8],[-85.02,32.53],[-84.97,32.41],[-84.99,32.36],[-84.97,32.32],[-84.92,32.29],[-84.93,32.25],[-84.99,32.2],[-85.03,32.15],[-85.06,32.05]],[[-83.75,34.72],[-83.69,34.7],[-83.66,34.66],[-83.64,34.59],[-83.67,34.5],[-83.82,34.36]]]}},{"type":"Feature","properties":{"name":"Chattooga"},"geometry":{"type":"LineString","coordinates":[[-83.12,35.08],[-83.12,35.0],[-83.17,34.93],[-83.32,34.81],[-83.36,34.71]]}},{"type":"Feature","properties":{"name":"Churchill"},"geometry":{"type":"MultiLineString","coordinates":[[[-64.62,52.89],[-64.68,53.13]],[[-64.68,53.38],[-64.58,53.49],[-64.45,53.53],[-64.26,53.55],[-64.07,53.54],[-63.87,53.51],[-63.64,53.43],[-63.38,53.29],[-63.03,53.21],[-62.61,53.18],[-62.35,53.15],[-62.27,53.1],[-62.21,53.04],[-62.18,52.96],[-62.04,52.91],[-61.79,52.89],[-61.65,52.91],[-61.63,52.97],[-61.58,53.0],[-61.45,52.99],[-60.98,53.2],[-60.72,53.27],[-60.56,53.25],[-60.34,53.28]]]}},{"type":"Feature","properties":{"name":"Columbia"},"geometry":{"type":"MultiLineString","coordinates":[[[-122.15,45.59],[-122.2,45.59],[-122.56,45.63],[-122.65,45.63],[-122.73,45.67],[-122.75,45.75],[-122.84,45.98],[-122.94,46.11],[-123.04,46.16],[-123.12,46.18],[-123.22,46.15]],[[-118.17,48.23],[-118.23,48.09],[-118.28,48.04],[-118.35,48.03],[-118.37,48.0],[-118.35,47.93],[-118.35,47.88],[-118.38,47.85],[-118.43,47.86],[-118.53,47.9],[-118.67,47.93],[-118.85,47.93],[-118.98,47.98],[-119.05,48.08],[-119.23,48.1],[-119.51,48.04],[-119.68,48.03],[-119.74,48.07],[-119.8,48.08],[-119.86,48.07],[-119.89,48.03],[-119.87,47.97],[-119.87,47.93],[-119.89,47.89],[-119.97,47.81],[-120.04,47.78],[-120.14,47.76],[-120.21,47.69],[-120.26,47.58],[-120.27,47.49],[-120.25,47.43],[-120.19,47.38],[-120.07,47.33],[-120.07,47.28],[-120.05,47.24],[-120.01,47.22],[-120.0,47.18],[-120.01,47.12],[-119.99,46.99],[-119.94,46.78],[-119.84,46.67],[-119.69,46.67],[-119.58,46.68],[-119.51,46.72],[-119.42,46.68],[-119.31,46.57],[-119.26,46.46],[-119.25,46.34],[-119.2,46.27],[-119.11,46.24],[-119.08,46.23],[-119.06,46.22],[-119.04,46.21],[-118.97,46.13],[-118.95,46.11],[-118.93,46.09],[-118.92,46.08],[-118.93,46.06],[-118.96,46.04],[-118.99,46.02],[-119.05,45.98],[-119.18,45.95],[-119.43,45.93],[-119.93,45.84],[-120.16,45.76],[-120.35,45.73],[-120.72,45.69],[-121.05,45.64],[-121.18,45.64],[-121.24,45.69],[-121.4,45.71],[-121.66,45.72],[-121.88,45.69],[-122.09,45.6],[-122.15,45.59]],[[-117.91,49.34],[-117.72,49.33],[-117.68,49.28],[-117.71,49.17],[-117.7,49.1],[-117.65,49.05],[-117.68,49.02],[-117.72,48.97],[-117.91,48.86],[-118.02,48.77],[-118.07,48.66]],[[-117.88,50.1],[-117.92,50.09],[-117.92,50.06],[-117.91,50.02],[-117.95,49.97],[-118.03,49.93],[-118.07,49.88],[-118.09,49.8]],[[-115.87,50.29],[-116.08,50.59],[-116.22,50.76],[-116.37,50.89],[-116.54,51.01],[-116.76,51.12],[-116.93,51.24],[-117.05,51.38],[-117.18,51.47],[-117.32,51.51],[-117.42,51.56],[-117.52,51.66]],[[-117.87,51.87],[-118.37,52.09]],[[-118.53,52.1],[-118.58,52.05],[-118.6,52.0],[-118.59,51.92],[-118.61,51.86],[-118.66,51.8],[-118.68,51.74],[-118.67,51.7],[-118.6,51.59],[-118.46,51.43],[-118.36,51.32],[-118.29,51.28],[-118.24,51.21],[-118.2,51.12],[-118.2,51.05],[-118.21,51.0],[-118.14,50.9],[-117.91,50.68]]]}},{"type":"Feature","properties":{"name":"Copper"},"geometry":{"type":"LineString","coordinates":[[-143.66,62.47],[-143.68,62.56],[-143.71,62.61],[-143.78,62.65],[-143.91,62.67],[-144.2,62.7],[-144.46,62.66],[-144.73,62.57],[-145.11,62.4],[-145.34,62.29],[-145.4,62.22],[-145.42,62.16],[-145.38,62.07],[-145.17,61.92],[-144.94,61.81],[-144.62,61.7],[-144.45,61.62],[-144.43,61.53],[-144.49,61.45],[-144.58,61.41],[-144.73,61.37],[-144.83,61.31],[-144.88,61.24],[-144.87,61.15],[-144.82,61.05],[-144.72,60.95],[-144.57,60.86],[-144.53,60.83],[-144.52,60.82],[-144.53,60.79],[-144.62,60.71],[-144.64,60.69],[-144.69,60.67]]}},{"type":"Feature","properties":{"name":"Coppermine"},"geometry":{"type":"MultiLineString","coordinates":[[[-111.21,64.58],[-111.35,64.55],[-111.46,64.56],[-111.57,64.6],[-111.71,64.63],[-111.97,64.64]],[[-112.32,64.96],[-112.34,64.9]],[[-114.17,65.64],[-114.17,65.68],[-114.23,65.73],[-114.36,65.79],[-114.43,65.86],[-114.44,65.96],[-114.4,66.04],[-114.32,66.1],[-114.37,66.23],[-114.56,66.44],[-114.75,66.59],[-114.95,66.66],[-115.27,66.73],[-115.92,66.83],[-116.16,66.81],[-116.27,66.83],[-116.33,66.89],[-116.29,66.97],[-116.17,67.08],[-116.13,67.16],[-116.2,67.2],[-116.07,67.22],[-115.77,67.23],[-115.6,67.24],[-115.57,67.25],[-115.59,67.28],[-115.67,67.3],[-115.71,67.34],[-115.72,67.39],[-115.69,67.44],[-115.63,67.5],[-115.59,67.54],[-115.6,67.56],[-115.55,67.61],[-115.46,67.69],[-115.34,67.75],[-115.13,67.82]]]}},{"type":"Feature","properties":{"name":"Double Mountain Fork Brazos"},"geometry":{"type":"LineString","coordinates":[[-101.67,33.54],[-101.43,33.4],[-101.32,33.27],[-101.25,33.2],[-101.18,33.16],[-101.11,33.14],[-101.0,33.14],[-100.83,33.1],[-100.71,33.04],[-100.5,32.9]]}},{"type":"Feature","properties":{"name":"Finlay"},"geometry":{"type":"LineString","coordinates":[[-127.24,56.81],[-126.93,56.92],[-126.91,57.08],[-126.82,57.19],[-126.64,57.3],[-126.55,57.41],[-126.54,57.55],[-126.52,57.63],[-126.48,57.66],[-126.4,57.67],[-126.29,57.67],[-126.17,57.62],[-126.02,57.52],[-125.84,57.44],[-125.63,57.39],[-125.39,57.26],[-125.12,57.05],[-124.95,56.9],[-124.84,56.76]]}},{"type":"Feature","properties":{"name":"Fraser"},"geometry":{"type":"LineString","coordinates":[[-118.32,52.52],[-118.57,52.76],[-118.6,52.82],[-118.72,52.89],[-118.94,52.98],[-119.18,53.02],[-119.43,53.01],[-119.67,53.06],[-119.91,53.16],[-120.24,53.35],[-120.68,53.61],[-121.02,53.78],[-121.4,53.89],[-121.58,53.93],[-121.65,53.96],[-121.65,54.0],[-121.74,54.06],[-121.9,54.14],[-122.09,54.2],[-122.29,54.24],[-122.44,54.25],[-122.51,54.22],[-122.55,54.17],[-122.56,54.12],[-122.61,54.05],[-122.7,53.95],[-122.74,53.82],[-122.73,53.65],[-122.71,53.53],[-122.67,53.46],[-122.71,53.4],[-122.83,53.35],[-122.8,53.27],[-122.64,53.15],[-122.53,53.04],[-122.48,52.93],[-122.46,52.8],[-122.48,52.64],[-122.44,52.51],[-122.34,52.4],[-122.28,52.26],[-122.27,52.1],[-122.27,51.99],[-122.29,51.94],[-122.32,51.9],[-122.37,51.88],[-122.39,51.85],[-122.41,51.76],[-122.27,51.52],[-122.23,51.41],[-122.23,51.34],[-122.14,51.22],[-121.96,51.04],[-121.86,50.9],[-121.85,50.81],[-121.87,50.77],[-121.91,50.76],[-121.92,50.74],[-121.92,50.7],[-121.86,50.62],[-121.74,50.49],[-121.63,50.3],[-121.51,50.05],[-121.45,49.79],[-121.45,49.53],[-121.49,49.39],[-121.58,49.35],[-121.65,49.31],[-121.7,49.25],[-121.87,49.19],[-122.18,49.14],[-122.44,49.14],[-122.67,49.2],[-122.85,49.21],[-123.04,49.15],[-123.08,49.13]]}},{"type":"Feature","properties":{"name":"Gila"},"geometry":{"type":"MultiLineString","coordinates":[[[-111.25,33.1],[-111.45,33.04],[-111.65,33.05],[-111.9,33.13],[-112.12,33.22],[-112.32,33.34],[-112.51,33.37],[-112.7,33.31],[-112.77,33.24],[-112.72,33.15],[-112.7,33.09],[-112.72,33.04],[-112.81,33.03],[-112.98,33.07],[-113.08,33.07],[-113.12,33.03],[-113.2,33.0],[-113.32,32.98],[-113.53,32.91],[-113.82,32.78],[-114.0,32.72],[-114.07,32.73],[-114.13,32.73],[-114.19,32.7],[-114.26,32.71],[-114.34,32.76],[-114.43,32.78],[-114.58,32.73]],[[-108.2,33.58],[-108.11,33.41],[-108.25,33.18],[-108.35,33.09],[-108.46,33.08],[-108.56,32.99],[-108.62,32.83],[-108.71,32.72],[-108.82,32.66],[-108.94,32.66],[-109.07,32.71],[-109.16,32.79],[-109.21,32.88],[-109.26,32.94],[-109.32,32.96],[-109.4,32.94],[-109.49,32.88],[-109.59,32.85],[-109.7,32.85],[-109.85,32.93],[-110.04,33.1],[-110.23,33.19],[-110.4,33.19],[-110.55,33.15],[-110.69,33.06],[-110.81,33.04],[-110.92,33.1],[-111.04,33.12],[-111.26,33.11]]]}},{"type":"Feature","properties":{"name":"Great Pee Dee"},"geometry":{"type":"LineString","coordinates":[[-80.46,36.23],[-80.46,36.21],[-80.48,36.09],[-80.46,36.01],[-80.39,35.94],[-80.37,35.89],[-80.38,35.86],[-80.41,35.84],[-80.45,35.84],[-80.47,35.82],[-80.46,35.77],[-80.42,35.74],[-80.35,35.72],[-80.27,35.65],[-80.12,35.47],[-80.07,35.4],[-80.06,35.31],[-80.06,35.18],[-80.03,35.11],[-79.96,35.11],[-79.91,35.1],[-79.88,35.06],[-79.88,34.98],[-79.91,34.85],[-79.89,34.74],[-79.81,34.65],[-79.78,34.58],[-79.8,34.52],[-79.79,34.5],[-79.75,34.5],[-79.72,34.46],[-79.68,34.36],[-79.63,34.3],[-79.6,34.29],[-79.55,34.2],[-79.47,33.93],[-79.33,33.79],[-79.25,33.72],[-79.16,33.67],[-79.12,33.63],[-79.11,33.58],[-79.12,33.53],[-79.19,33.44],[-79.23,33.4]]}},{"type":"Feature","properties":{"name":"Holston"},"geometry":{"type":"LineString","coordinates":[[-81.42,37.01],[-81.69,36.93],[-81.88,36.85],[-82.14,36.76],[-82.59,36.61],[-82.67,36.52],[-82.94,36.4],[-83.03,36.37],[-83.19,36.32],[-83.39,36.26],[-83.45,36.2],[-83.75,36.08],[-83.9,35.98],[-83.97,35.91],[-83.97,35.87]]}},{"type":"Feature","properties":{"name":"Hudson"},"geometry":{"type":"LineString","coordinates":[[-74.07,44.1],[-74.06,44.02],[-74.08,43.98],[-74.12,43.97],[-74.15,43.94],[-74.18,43.89],[-74.18,43.86],[-74.15,43.83],[-73.97,43.74],[-73.89,43.66],[-73.84,43.58],[-73.83,43.51],[-73.86,43.45],[-73.87,43.38],[-73.85,43.3],[-73.78,43.27],[-73.67,43.3],[-73.62,43.23],[-73.62,43.0],[-73.73,42.71],[-73.77,42.54],[-73.77,42.39],[-73.82,42.27],[-73.9,42.16],[-73.94,42.02],[-73.95,41.77],[-73.98,41.57],[-73.98,41.46],[-73.96,41.33],[-73.97,41.28],[-73.97,41.25]]}},{"type":"Feature","properties":{"name":"Klamath"},"geometry":{"type":"MultiLineString","coordinates":[[[-123.78,41.28],[-123.84,41.3],[-123.88,41.36],[-123.94,41.47],[-123.99,41.52],[-124.07,41.54],[-124.09,41.54]],[[-121.81,42.25],[-121.78,42.21],[-121.8,42.18],[-121.85,42.14],[-121.9,42.13],[-121.97,42.15],[-122.05,42.12],[-122.16,42.04],[-122.26,41.99],[-122.35,41.99],[-122.45,41.95],[-122.54,41.89],[-122.64,41.87],[-122.74,41.89],[-122.81,41.89],[-122.88,41.87],[-123.0,41.83],[-123.1,41.83],[-123.22,41.87],[-123.34,41.81],[-123.46,41.67],[-123.51,41.53],[-123.5,41.41],[-123.54,41.31],[-123.61,41.24],[-123.68,41.23],[-123.78,41.28]]]}},{"type":"Feature","properties":{"name":"Koyukuk"},"geometry":{"type":"LineString","coordinates":[[-150.82,68.04],[-150.89,67.85],[-150.99,67.75],[-151.03,67.68],[-151.04,67.61],[-150.99,67.55],[-150.88,67.49],[-150.79,67.43],[-150.73,67.36],[-150.73,67.28],[-150.79,67.19],[-151.03,67.09],[-151.45,66.97],[-151.62,66.92],[-151.68,66.86],[-151.71,66.74],[-151.78,66.66],[-151.89,66.61],[-152.03,66.58],[-152.22,66.56],[-152.4,66.55],[-152.56,66.57],[-152.73,66.55],[-152.91,66.49],[-153.07,66.46],[-153.21,66.46],[-153.3,66.44],[-153.33,66.39],[-153.42,66.41],[-153.6,66.38],[-153.91,66.31],[-154.13,66.19],[-154.28,66.04],[-154.45,65.92],[-154.67,65.83],[-154.85,65.79],[-154.99,65.8],[-155.05,65.83],[-155.09,65.85],[-155.22,65.88],[-155.27,65.91],[-155.31,65.93],[-155.36,65.92],[-155.39,65.94],[-155.39,65.96],[-155.43,65.99],[-155.52,66.0],[-155.65,65.97],[-155.77,65.98],[-155.87,66.01],[-156.01,66.02],[-156.19,66.01],[-156.22,65.99],[-156.22,65.96],[-156.25,65.95],[-156.33,65.93],[-156.35,65.91],[-156.33,65.89],[-156.35,65.83],[-156.48,65.76],[-156.5,65.73],[-156.49,65.7],[-156.47,65.67],[-156.49,65.65],[-156.47,65.63],[-156.43,65.62],[-156.39,65.62],[-156.37,65.58],[-156.35,65.56],[-156.34,65.53],[-156.35,65.52],[-156.38,65.5],[-156.39,65.49],[-156.39,65.47],[-156.43,65.46],[-156.5,65.46],[-156.57,65.46],[-156.64,65.47],[-156.63,65.49],[-156.67,65.52],[-156.77,65.55],[-156.86,65.56],[-156.94,65.56],[-157.03,65.54],[-157.14,65.49],[-157.29,65.47],[-157.49,65.49],[-157.61,65.49],[-157.64,65.47],[-157.68,65.41],[-157.68,65.4],[-157.64,65.39],[-157.62,65.36],[-157.62,65.32],[-157.64,65.3],[-157.63,65.26],[-157.65,65.22],[-157.66,65.16],[-157.65,65.08],[-157.59,65.06],[-157.51,65.08],[-157.43,65.07],[-157.37,65.04],[-157.4,65.03],[-157.5,65.03],[-157.54,65.0],[-157.53,64.96],[-157.58,64.92],[-157.74,64.87],[-157.77,64.85]]}},{"type":"Feature","properties":{"name":"Kuskokwim"},"geometry":{"type":"LineString","coordinates":[[-154.72,63.08],[-154.84,63.02],[-154.93,63.01],[-155.01,63.02],[-155.12,63.0],[-155.27,62.96],[-155.37,62.96],[-155.42,63.0],[-155.49,63.0],[-155.59,62.97],[-155.62,62.95],[-155.56,62.93],[-155.6,62.89],[-155.74,62.82],[-155.82,62.77],[-155.83,62.74],[-155.82,62.72],[-155.79,62.71],[-155.78,62.68],[-155.77,62.62],[-155.78,62.59],[-155.81,62.55],[-156.02,62.47],[-156.14,62.38],[-156.24,62.27],[-156.26,62.16],[-156.2,62.07],[-156.2,62.01],[-156.26,61.99],[-156.3,61.95],[-156.33,61.9],[-156.52,61.82],[-156.87,61.71],[-157.24,61.73],[-157.63,61.85],[-157.88,61.89],[-158.0,61.86],[-158.08,61.85],[-158.12,61.87],[-158.18,61.82],[-158.27,61.69],[-158.39,61.61],[-158.54,61.57],[-158.71,61.57],[-158.89,61.59],[-159.19,61.59],[-159.8,61.57],[-160.22,61.54],[-160.41,61.5],[-160.54,61.44],[-160.6,61.39],[-160.62,61.33],[-160.65,61.31],[-160.72,61.3],[-160.75,61.28],[-160.77,61.24],[-160.85,61.19],[-160.98,61.12],[-161.07,61.06],[-161.1,60.99],[-161.17,60.94],[-161.29,60.9],[-161.39,60.88],[-161.46,60.9],[-161.49,60.89],[-161.48,60.85],[-161.48,60.83],[-161.51,60.81],[-161.56,60.82],[-161.62,60.84],[-161.66,60.84],[-161.67,60.8],[-161.69,60.78],[-161.74,60.78],[-161.76,60.77],[-161.75,60.74],[-161.77,60.72],[-161.88,60.7],[-161.95,60.68]]}},{"type":"Feature","properties":{"name":"La Grande"},"geometry":{"type":"MultiLineString","coordinates":[[[-70.48,53.41],[-70.42,53.41],[-70.39,53.43],[-70.36,53.49],[-70.47,53.49],[-70.84,53.43]],[[-71.12,53.59],[-71.28,53.66],[-71.45,53.68],[-71.82,53.65]],[[-72.04,53.6],[-72.09,53.6],[-72.1,53.62],[-72.08,53.64],[-72.08,53.65],[-72.11,53.66],[-72.28,53.62],[-72.35,53.63],[-72.39,53.67],[-72.5,53.69],[-72.69,53.68],[-72.73,53.7],[-72.85,53.76],[-73.14,53.87],[-73.33,53.92],[-73.41,53.91],[-73.54,53.88],[-73.71,53.81],[-73.96,53.75],[-74.44,53.68]],[[-77.42,53.8],[-77.63,53.82],[-77.83,53.81],[-78.09,53.76],[-78.39,53.76],[-78.9,53.82],[-78.92,53.82],[-78.95,53.83]]]}},{"type":"Feature","properties":{"name":"Liard"},"geometry":{"type":"LineString","coordinates":[[-131.37,61.2],[-131.32,61.07],[-131.25,61.04],[-131.13,61.07],[-131.04,61.08],[-130.95,61.05],[-130.62,60.86],[-130.37,60.76],[-130.1,60.7],[-129.84,60.58],[-129.59,60.42],[-129.37,60.31],[-129.19,60.26],[-129.03,60.19],[-128.9,60.09],[-128.79,60.03],[-128.69,60.03],[-128.61,60.0],[-128.55,59.96],[-128.4,59.91],[-128.16,59.86],[-127.99,59.88],[-127.89,59.97],[-127.77,60.01],[-127.64,59.99],[-127.54,59.95],[-127.46,59.9],[-127.45,59.84],[-127.49,59.77],[-127.46,59.74],[-127.35,59.74],[-127.26,59.71],[-127.14,59.64],[-126.99,59.66],[-126.83,59.65],[-126.63,59.61],[-126.4,59.55],[-126.16,59.46],[-125.98,59.43],[-125.87,59.46],[-125.81,59.46],[-125.67,59.38],[-125.45,59.32],[-125.23,59.31],[-125.03,59.35],[-124.88,59.41],[-124.79,59.5],[-124.72,59.55],[-124.68,59.62],[-124.65,59.67],[-124.55,59.73],[-124.41,59.72],[-124.23,59.65],[-124.16,59.62],[-124.15,59.56],[-124.08,59.56],[-124.05,59.59],[-123.93,59.71],[-123.86,59.85],[-123.83,60.02],[-123.71,60.16],[-123.49,60.27],[-123.42,60.37],[-123.49,60.44],[-123.53,60.52],[-123.55,60.61],[-123.55,60.67],[-123.53,60.7],[-123.47,60.74],[-123.44,60.8],[-123.4,60.89],[-123.35,60.95],[-123.33,60.97],[-123.28,61.02],[-123.18,61.08],[-123.14,61.1],[-123.0,61.1],[-122.89,61.14],[-122.75,61.22],[-122.4,61.31],[-121.84,61.4],[-121.52,61.48],[-121.44,61.54],[-121.41,61.6],[-121.43,61.64],[-121.38,61.68],[-121.26,61.73],[-121.22,61.78],[-121.28,61.86]]}},{"type":"Feature","properties":{"name":"Mackenzie"},"geometry":{"type":"MultiLineString","coordinates":[[[-117.67,61.31],[-117.71,61.37],[-117.86,61.41],[-118.14,61.47],[-118.32,61.45],[-118.4,61.37],[-118.7,61.3],[-119.22,61.25],[-119.77,61.3],[-120.36,61.47],[-120.67,61.57],[-120.71,61.6],[-120.72,61.65],[-120.69,61.7],[-120.68,61.75],[-120.71,61.79],[-120.87,61.82],[-121.15,61.84],[-121.28,61.86],[-121.36,61.88],[-121.59,61.97],[-122.24,62.12],[-122.6,62.17],[-122.91,62.17],[-123.14,62.2],[-123.39,62.31],[-123.4,62.33],[-123.36,62.41],[-123.25,62.55],[-123.2,62.71],[-123.22,62.89],[-123.25,63.02],[-123.31,63.11],[-123.42,63.2],[-123.58,63.28],[-123.68,63.38],[-123.74,63.49],[-123.83,63.63],[-123.97,63.79],[-124.08,63.9],[-124.18,63.95],[-124.27,63.98],[-124.33,63.98],[-124.39,64.0],[-124.44,64.05],[-124.45,64.1],[-124.43,64.17],[-124.45,64.23],[-124.51,64.28],[-124.58,64.31],[-124.68,64.33],[-124.79,64.4],[-124.91,64.53],[-124.95,64.61],[-124.91,64.67],[-124.94,64.71],[-125.04,64.72],[-125.11,64.76],[-125.15,64.83],[-125.38,64.87],[-125.62,64.9],[-125.78,64.91],[-126.03,64.96],[-126.18,65.05],[-126.46,65.18],[-126.65,65.24],[-126.93,65.29],[-127.06,65.3],[-127.34,65.37],[-128.03,65.61],[-128.4,65.62],[-128.59,65.64],[-128.72,65.68],[-128.75,65.74],[-128.82,65.79],[-128.97,65.87],[-129.07,65.95],[-129.1,66.04],[-129.09,66.11],[-129.04,66.15],[-128.92,66.2],[-128.75,66.25],[-128.67,66.29],[-128.68,66.33],[-128.75,66.36],[-128.87,66.38],[-129.09,66.48],[-129.41,66.64],[-129.7,66.75],[-129.95,66.8],[-130.12,66.86],[-130.19,66.94],[-130.24,67.05],[-130.26,67.17],[-130.31,67.26],[-130.37,67.3],[-130.5,67.33],[-130.71,67.34],[-130.76,67.35],[-130.81,67.37],[-130.88,67.42],[-130.96,67.46],[-131.16,67.49],[-131.44,67.47],[-131.91,67.4],[-132.57,67.28],[-133.02,67.25],[-133.26,67.3],[-133.43,67.37],[-133.54,67.44],[-133.64,67.48],[-133.74,67.48],[-133.89,67.53],[-134.09,67.63],[-134.2,67.72],[-134.21,67.8],[-134.28,67.89],[-134.39,67.98],[-134.45,68.07],[-134.44,68.18],[-134.41,68.23],[-134.37,68.29],[-134.33,68.31],[-134.27,68.32],[-134.2,68.34],[-134.12,68.39],[-134.1,68.43],[-134.07,68.52],[-134.1,68.58],[-134.24,68.71]],[[-134.24,68.71],[-134.39,68.71],[-134.54,68.77],[-134.84,68.96]],[[-134.24,68.71],[-134.55,68.92],[-134.63,69.02],[-134.59,69.07],[-134.5,69.11],[-134.31,69.15],[-134.24,69.19],[-134.17,69.25]],[[-134.84,68.96],[-135.03,68.91],[-135.13,68.9],[-135.2,68.93],[-135.32,68.94],[-135.61,68.91],[-135.64,68.89]],[[-134.84,68.96],[-135.04,69.06],[-135.08,69.11],[-135.02,69.14],[-135.04,69.18],[-135.18,69.26],[-135.25,69.32]]]}},{"type":"Feature","properties":{"name":"Madison"},"geometry":{"type":"MultiLineString","coordinates":[[[-110.74,44.73],[-110.86,44.67],[-110.93,44.65],[-111.0,44.66],[-111.05,44.69],[-111.09,44.75],[-111.1,44.76]],[[-111.31,44.87],[-111.33,44.87],[-111.41,44.84],[-111.48,44.85],[-111.55,44.89],[-111.63,44.99],[-111.69,45.14],[-111.72,45.26],[-111.7,45.35],[-111.65,45.46],[-111.55,45.57],[-111.49,45.72],[-111.46,45.9],[-111.43,46.02],[-111.39,46.08],[-111.41,46.18],[-111.52,46.36]]]}},{"type":"Feature","properties":{"name":"Mississippi"},"geometry":{"type":"MultiLineString","coordinates":[[[-89.38,28.98],[-89.26,29.15],[-89.02,29.2]],[[-89.26,29.16],[-89.29,29.18]],[[-89.29,29.18],[-89.18,29.34]],[[-89.29,29.18],[-89.43,29.29],[-89.52,29.35],[-89.62,29.39],[-89.67,29.42],[-89.67,29.44],[-89.71,29.49],[-89.76,29.51],[-89.87,29.61],[-89.97,29.69],[-90.01,29.75],[-90.01,29.81],[-89.99,29.86],[-89.96,29.88],[-89.93,29.88],[-89.92,29.89],[-89.92,29.9],[-89.93,29.91],[-90.04,29.93],[-90.25,29.94],[-90.39,29.98],[-90.46,30.03],[-90.58,30.05],[-90.74,30.02],[-90.85,30.04],[-90.88,30.08],[-90.9,30.1],[-90.94,30.13],[-90.99,30.13],[-91.02,30.15],[-91.04,30.18],[-91.07,30.2],[-91.11,30.21],[-91.13,30.23],[-91.13,30.25],[-91.15,30.27],[-91.18,30.28],[-91.19,30.31],[-91.19,30.33],[-91.2,30.35],[-91.23,30.37],[-91.24,30.4],[-91.22,30.48],[-91.23,30.5],[-91.26,30.53],[-91.26,30.57],[-91.28,30.61],[-91.34,30.71],[-91.39,30.74],[-91.42,30.75],[-91.53,30.76],[-91.56,30.78],[-91.55,30.81],[-91.52,30.85],[-91.53,30.87],[-91.55,30.91],[-91.62,30.94],[-91.65,30.95],[-91.66,30.97],[-91.66,31.0],[-91.65,31.03],[-91.61,31.06],[-91.6,31.11],[-91.63,31.22],[-91.62,31.28],[-91.56,31.29],[-91.53,31.35],[-91.53,31.45],[-91.51,31.52],[-91.46,31.55],[-91.41,31.64],[-91.37,31.77],[-91.29,31.88],[-91.16,31.97],[-91.09,32.05],[-91.09,32.1],[-91.07,32.13],[-91.05,32.15],[-91.0,32.19],[-90.95,32.24],[-90.94,32.28],[-90.94,32.3],[-90.94,32.33],[-90.99,32.38],[-91.06,32.42],[-91.1,32.49],[-91.1,32.54],[-91.12,32.59],[-91.15,32.63],[-91.14,32.66],[-91.09,32.69],[-91.09,32.73],[-91.14,32.76],[-91.14,32.81],[-91.09,32.89],[-91.1,32.94],[-91.14,32.97],[-91.15,33.04],[-91.11,33.22],[-91.12,33.24],[-91.16,33.29],[-91.17,33.36],[-91.14,33.44],[-91.15,33.5],[-91.19,33.52],[-91.2,33.55],[-91.21,33.58],[-91.17,33.62],[-91.17,33.65],[-91.21,33.68],[-91.18,33.72],[-91.1,33.77],[-91.08,33.8],[-91.05,33.83],[-91.04,33.9],[-91.05,33.95],[-91.07,33.97],[-91.06,33.99],[-91.04,34.0],[-90.94,34.03],[-90.91,34.05],[-90.91,34.07],[-90.94,34.13],[-90.91,34.19],[-90.82,34.25],[-90.77,34.31],[-90.76,34.36],[-90.72,34.39],[-90.64,34.41],[-90.58,34.5],[-90.56,34.66],[-90.54,34.73],[-90.5,34.74],[-90.47,34.76],[-90.47,34.81],[-90.42,34.85],[-90.32,34.9],[-90.28,34.95],[-90.29,34.97],[-90.29,35.0],[-90.26,35.05],[-90.14,35.11],[-90.09,35.2],[-90.11,35.31],[-90.07,35.41],[-89.97,35.5],[-89.93,35.59],[-89.94,35.68],[-89.89,35.75],[-89.78,35.81],[-89.76,35.83],[-89.77,35.85],[-89.77,35.86],[-89.77,35.87],[-89.76,35.89],[-89.74,35.9],[-89.7,35.91],[-89.69,35.92],[-89.69,35.94],[-89.71,35.98],[-89.7,36.03],[-89.64,36.1],[-89.63,36.17],[-89.67,36.22],[-89.65,36.25],[-89.63,36.26],[-89.59,36.26],[-89.58,36.27],[-89.58,36.29],[-89.61,36.32],[-89.6,36.35],[-89.56,36.37],[-89.54,36.43],[-89.56,36.51],[-89.56,36.54],[-89.55,36.55],[-89.54,36.56],[-89.52,36.55],[-89.5,36.53],[-89.49,36.5],[-89.47,36.49],[-89.45,36.5],[-89.4,36.59],[-89.35,36.61],[-89.33,36.62],[-89.28,36.6],[-89.26,36.59],[-89.2,36.63],[-89.16,36.72],[-89.13,36.81],[-89.12,36.91],[-89.15,36.99],[-89.22,37.05],[-89.27,37.08],[-89.28,37.08],[-89.29,37.07],[-89.3,37.05],[-89.29,37.04],[-89.29,37.02],[-89.29,37.01],[-89.3,37.01],[-89.35,37.04],[-89.41,37.1],[-89.49,37.21],[-89.5,37.3],[-89.46,37.37],[-89.46,37.43],[-89.5,37.51],[-89.52,37.58],[-89.52,37.64],[-89.62,37.75],[-89.82,37.88],[-89.97,37.97],[-90.06,38.0],[-90.17,38.07],[-90.3,38.17],[-90.37,38.25],[-90.37,38.31],[-90.32,38.46],[-90.15,38.78],[-90.13,38.82],[-90.13,38.83],[-90.13,38.85],[-90.15,38.86],[-90.22,38.9],[-90.35,38.93],[-90.48,38.95],[-90.58,38.91],[-90.66,38.99],[-90.74,39.18],[-90.92,39.39],[-91.21,39.6],[-91.38,39.75],[-91.43,39.83],[-91.47,39.94],[-91.5,40.1],[-91.5,40.23],[-91.44,40.38],[-91.39,40.4],[-91.38,40.45],[-91.39,40.54],[-91.34,40.6],[-91.22,40.65],[-91.1,40.75],[-91.0,40.9],[-90.95,41.02],[-90.96,41.08],[-91.0,41.15],[-91.07,41.21],[-91.08,41.28],[-91.05,41.37],[-90.94,41.43],[-90.75,41.45],[-90.59,41.49],[-90.44,41.56],[-90.35,41.63],[-90.32,41.71],[-90.28,41.77],[-90.22,41.81],[-90.18,41.88],[-90.15,41.98],[-90.15,42.05],[-90.17,42.1],[-90.23,42.15],[-90.35,42.21],[-90.41,42.27],[-90.43,42.33],[-90.48,42.38],[-90.59,42.44],[-90.66,42.52],[-90.69,42.61],[-90.79,42.68],[-90.96,42.72],[-91.07,42.79],[-91.12,42.88],[-91.15,42.99],[-91.16,43.1],[-91.15,43.2],[-91.11,43.28],[-91.12,43.33],[-91.18,43.36],[-91.22,43.4],[-91.24,43.44],[-91.28,43.8],[-91.32,43.94],[-91.38,43.99],[-91.51,44.05],[-91.72,44.13],[-91.84,44.19],[-91.91,44.29],[-92.06,44.4],[-92.15,44.45],[-92.24,44.46],[-92.31,44.5],[-92.37,44.55],[-92.44,44.59],[-92.54,44.6],[-92.64,44.65],[-92.82,44.76],[-92.96,44.79],[-93.03,44.84],[-93.07,44.91],[-93.12,44.94],[-93.18,44.91],[-93.23,44.96],[-93.29,45.09],[-93.35,45.17],[-93.41,45.2],[-93.94,45.39],[-94.06,45.44],[-94.13,45.5],[-94.19,45.58],[-94.21,45.63],[-94.2,45.66],[-94.24,45.71],[-94.32,45.79],[-94.37,45.85],[-94.39,45.91],[-94.39,45.97],[-94.36,46.05],[-94.37,46.12],[-94.39,46.19],[-94.33,46.28],[-94.18,46.4],[-94.09,46.48],[-94.06,46.54],[-93.96,46.57],[-93.8,46.56],[-93.69,46.59],[-93.64,46.65],[-93.57,46.7],[-93.49,46.73],[-93.4,46.81],[-93.32,46.94],[-93.31,47.02],[-93.36,47.04],[-93.4,47.09],[-93.44,47.16],[-93.51,47.21],[-93.59,47.24],[-93.68,47.25],[-93.76,47.23],[-93.8,47.24],[-93.79,47.29],[-93.83,47.31],[-93.9,47.31],[-93.98,47.34],[-94.09,47.43]],[[-95.03,47.16],[-94.97,47.32],[-94.88,47.45],[-94.79,47.48],[-94.64,47.44]],[[-94.51,47.46],[-94.33,47.41]]]}},{"type":"Feature","properties":{"name":"Missouri"},"geometry":{"type":"MultiLineString","coordinates":[[[-98.56,43.06],[-98.14,42.85],[-97.96,42.81],[-97.88,42.85],[-97.7,42.87],[-97.42,42.88],[-97.24,42.86],[-97.16,42.81],[-97.02,42.76],[-96.8,42.7],[-96.68,42.64],[-96.63,42.57],[-96.56,42.52],[-96.45,42.51],[-96.38,42.42],[-96.36,42.26],[-96.3,42.13],[-96.2,42.04],[-96.15,41.97],[-96.15,41.92],[-96.13,41.87],[-96.09,41.82],[-96.07,41.73],[-96.08,41.61],[-96.06,41.55],[-96.01,41.54],[-95.99,41.52],[-96.0,41.49],[-95.98,41.47],[-95.94,41.46],[-95.93,41.43],[-95.95,41.37],[-95.94,41.33],[-95.89,41.32],[-95.88,41.29],[-95.91,41.25],[-95.91,41.21],[-95.87,41.19],[-95.85,41.08],[-95.83,40.89],[-95.84,40.78],[-95.86,40.75],[-95.83,40.68],[-95.74,40.57],[-95.68,40.47],[-95.66,40.36],[-95.61,40.3],[-95.52,40.26],[-95.46,40.2],[-95.43,40.1],[-95.36,40.01],[-95.12,39.87],[-95.06,39.87],[-94.98,39.89],[-94.93,39.86],[-94.89,39.78],[-94.9,39.74],[-94.95,39.74],[-95.0,39.69],[-95.08,39.6],[-95.06,39.51],[-94.95,39.43],[-94.88,39.34],[-94.85,39.26],[-94.78,39.19],[-94.62,39.12],[-94.5,39.12],[-94.42,39.15],[-94.33,39.2],[-94.24,39.21],[-94.14,39.16],[-94.03,39.15],[-93.91,39.19],[-93.77,39.21],[-93.6,39.22],[-93.51,39.24],[-93.5,39.27],[-93.47,39.27],[-93.42,39.24],[-93.34,39.27],[-93.24,39.36],[-93.11,39.36],[-92.94,39.26],[-92.88,39.19],[-92.92,39.14],[-92.93,39.09],[-92.91,39.03],[-92.82,38.99],[-92.65,38.98],[-92.5,38.89],[-92.29,38.66],[-92.12,38.59],[-91.98,38.6],[-91.8,38.67],[-91.62,38.71],[-91.43,38.71],[-91.24,38.67],[-91.03,38.59],[-90.87,38.58],[-90.75,38.65],[-90.66,38.68],[-90.6,38.68],[-90.51,38.73],[-90.4,38.83],[-90.32,38.86],[-90.26,38.84],[-90.13,38.82]],[[-100.39,44.44],[-100.37,44.41],[-100.34,44.37],[-100.23,44.33],[-100.02,44.29],[-99.92,44.24],[-99.93,44.21],[-99.92,44.17],[-99.88,44.14],[-99.8,44.12],[-99.68,44.11],[-99.65,44.13],[-99.69,44.18],[-99.68,44.2],[-99.63,44.21],[-99.59,44.18],[-99.57,44.12],[-99.51,44.06],[-99.36,43.99]],[[-111.7,46.66],[-111.76,46.67],[-111.81,46.71],[-111.89,46.79],[-111.91,46.84],[-111.9,46.86],[-111.92,46.92],[-111.98,47.0],[-111.99,47.06],[-111.96,47.1],[-111.62,47.34],[-111.45,47.42],[-111.35,47.41],[-111.29,47.44],[-111.29,47.5],[-111.24,47.54],[-111.14,47.57],[-111.04,47.63],[-110.94,47.74],[-110.86,47.78],[-110.79,47.78],[-110.62,47.84],[-110.33,47.98],[-110.17,48.04],[-110.12,48.02],[-110.09,47.97],[-110.06,47.88],[-109.99,47.82],[-109.89,47.76],[-109.61,47.75],[-109.16,47.79],[-108.93,47.8],[-108.92,47.76],[-108.87,47.72],[-108.79,47.68],[-108.61,47.64],[-108.19,47.6]],[[-101.4,47.51],[-101.42,47.48],[-101.41,47.43],[-101.36,47.34],[-101.25,47.28],[-101.07,47.26],[-100.98,47.23],[-100.99,47.2],[-100.97,47.15],[-100.92,47.09],[-100.9,47.03],[-100.92,46.99],[-100.89,46.9],[-100.78,46.71]],[[-106.41,48.02],[-106.37,48.06],[-106.22,48.06],[-105.96,48.03],[-105.73,48.04],[-105.54,48.09],[-105.34,48.1],[-105.12,48.08],[-104.98,48.1],[-104.9,48.14],[-104.75,48.15],[-104.53,48.14],[-104.28,48.09],[-104.0,48.02],[-103.83,47.99],[-103.77,48.03]]]}},{"type":"Feature","properties":{"name":"North Fork Kuskokwim"},"geometry":{"type":"LineString","coordinates":[[-151.67,64.3],[-152.21,64.33],[-152.4,64.24],[-152.5,64.16],[-152.57,64.07],[-152.6,64.01],[-152.59,63.97],[-152.79,63.88],[-153.21,63.75],[-153.46,63.65],[-153.51,63.58],[-153.61,63.52],[-153.73,63.46],[-153.85,63.4],[-153.96,63.33],[-154.01,63.29],[-154.0,63.27],[-154.18,63.21],[-154.72,63.08]]}},{"type":"Feature","properties":{"name":"Nelson"},"geometry":{"type":"MultiLineString","coordinates":[[[-97.73,54.08],[-97.59,54.24],[-97.57,54.32],[-97.61,54.37],[-97.62,54.43],[-97.59,54.49],[-97.63,54.53],[-97.79,54.57]],[[-97.9,54.7],[-97.92,54.77],[-97.96,54.81],[-98.01,54.83],[-98.01,54.86],[-97.95,54.95]],[[-97.25,55.24],[-97.07,55.25],[-96.95,55.3],[-96.83,55.4],[-96.77,55.48],[-96.76,55.55],[-96.7,55.67],[-96.6,55.84],[-96.55,55.96],[-96.55,56.06]],[[-95.84,56.29],[-95.43,56.34]],[[-94.78,56.39],[-94.34,56.42],[-94.0,56.55],[-93.59,56.79],[-93.26,56.91],[-92.88,56.91],[-92.8,56.93]]]}},{"type":"Feature","properties":{"name":"Niagara"},"geometry":{"type":"LineString","coordinates":[[-79.06,43.28],[-79.07,43.11]]}},{"type":"Feature","properties":{"name":"North Saskatchewan"},"geometry":{"type":"MultiLineString","coordinates":[[[-117.13,52.01],[-117.01,52.08],[-116.94,52.07],[-116.84,51.99],[-116.53,52.02],[-116.44,52.08],[-116.45,52.18],[-116.39,52.28],[-116.26,52.38],[-116.05,52.44],[-115.76,52.45],[-115.58,52.44],[-115.49,52.4],[-115.4,52.39],[-115.31,52.4],[-115.21,52.39],[-115.11,52.35],[-115.03,52.34],[-114.97,52.36],[-114.98,52.46],[-115.06,52.64],[-115.11,52.74],[-115.15,52.75],[-115.16,52.78],[-115.17,52.84],[-115.18,52.87],[-115.22,52.9],[-115.23,52.94],[-115.21,53.01],[-115.16,53.05],[-115.07,53.06],[-115.01,53.08],[-114.97,53.13],[-114.84,53.28],[-114.73,53.32],[-114.6,53.31],[-114.48,53.34],[-114.39,53.39],[-114.26,53.4],[-114.1,53.35],[-113.95,53.33],[-113.79,53.35],[-113.69,53.39],[-113.65,53.45],[-113.57,53.5],[-113.44,53.54],[-113.31,53.63],[-113.15,53.78],[-113.02,53.88],[-112.92,53.93],[-112.86,53.98],[-112.83,54.02],[-112.73,54.03],[-112.55,54.0],[-112.41,54.01],[-112.31,54.04],[-112.19,54.02],[-112.05,53.95],[-111.92,53.91],[-111.8,53.9],[-111.74,53.87],[-111.73,53.81],[-111.58,53.77],[-111.29,53.75],[-111.09,53.77],[-110.99,53.82],[-110.86,53.85],[-110.71,53.85],[-110.56,53.8],[-110.41,53.71],[-110.3,53.67],[-110.23,53.69],[-110.12,53.66],[-109.97,53.59],[-109.83,53.56],[-109.7,53.57],[-109.61,53.55],[-109.56,53.49],[-109.53,53.45],[-109.54,53.43],[-109.48,53.41],[-109.35,53.39],[-109.24,53.36],[-109.14,53.31],[-109.02,53.22],[-108.9,53.08],[-108.71,52.97],[-108.46,52.88],[-108.34,52.82],[-108.36,52.78],[-108.36,52.76],[-108.33,52.73]],[[-108.33,52.73],[-108.1,52.61],[-107.99,52.57],[-107.9,52.56],[-107.75,52.5],[-107.51,52.39],[-107.36,52.34],[-107.28,52.33],[-107.18,52.34],[-107.06,52.37],[-106.96,52.44],[-106.89,52.57],[-106.69,52.76],[-106.35,53.03],[-106.15,53.17],[-106.08,53.19],[-106.03,53.19],[-106.0,53.15],[-105.88,53.16],[-105.68,53.21],[-105.46,53.24],[-105.07,53.24]]]}},{"type":"Feature","properties":{"name":"Ohio"},"geometry":{"type":"MultiLineString","coordinates":[[[-85.19,38.69],[-85.21,38.7],[-85.25,38.73],[-85.31,38.74],[-85.41,38.73],[-85.44,38.68],[-85.42,38.6],[-85.46,38.53],[-85.55,38.48],[-85.61,38.42],[-85.65,38.35],[-85.71,38.3],[-85.79,38.29],[-85.85,38.22],[-85.91,38.09],[-85.96,38.01],[-86.02,37.98],[-86.1,37.99],[-86.21,38.04],[-86.27,38.08],[-86.28,38.13],[-86.31,38.16],[-86.34,38.18],[-86.36,38.18],[-86.36,38.17],[-86.35,38.16],[-86.37,38.14],[-86.43,38.14],[-86.46,38.12],[-86.45,38.09],[-86.46,38.06],[-86.5,38.05],[-86.52,38.01],[-86.52,37.96],[-86.55,37.92],[-86.6,37.87],[-86.67,37.89],[-86.77,37.96],[-86.87,37.98],[-86.97,37.94],[-87.04,37.89],[-87.09,37.82],[-87.14,37.81],[-87.21,37.85],[-87.37,37.92],[-87.46,37.94],[-87.52,37.92],[-87.56,37.93],[-87.58,37.95],[-87.59,37.96],[-87.6,37.95],[-87.6,37.89],[-87.62,37.85],[-87.64,37.83],[-87.66,37.85],[-87.68,37.89],[-87.71,37.9],[-87.77,37.89],[-87.83,37.89],[-87.87,37.92],[-87.89,37.91],[-87.91,37.9],[-87.9,37.86],[-87.91,37.82],[-87.94,37.79],[-87.97,37.79],[-88.02,37.8],[-88.04,37.79],[-88.07,37.77],[-88.13,37.7],[-88.14,37.62],[-88.11,37.53],[-88.19,37.46],[-88.39,37.41],[-88.49,37.36],[-88.51,37.32],[-88.49,37.26],[-88.45,37.18],[-88.45,37.12],[-88.47,37.09],[-88.61,37.11],[-88.87,37.19],[-89.05,37.18],[-89.13,37.1],[-89.17,37.04],[-89.15,36.99]],[[-79.99,40.45],[-80.15,40.52],[-80.22,40.58],[-80.26,40.66],[-80.34,40.69],[-80.52,40.65],[-80.64,40.6],[-80.66,40.56],[-80.62,40.51],[-80.6,40.45],[-80.6,40.36],[-80.67,40.19],[-80.8,39.91],[-80.87,39.74],[-80.87,39.66],[-80.96,39.57],[-81.14,39.46],[-81.26,39.39],[-81.33,39.36],[-81.39,39.36],[-81.44,39.39],[-81.49,39.37],[-81.55,39.31],[-81.61,39.27],[-81.66,39.27],[-81.7,39.23],[-81.74,39.15],[-81.77,39.1],[-81.8,39.09],[-81.8,39.04],[-81.78,38.97],[-81.78,38.95],[-81.8,38.95],[-81.81,38.95],[-81.84,38.93],[-81.88,38.89],[-81.9,38.89],[-81.91,38.9],[-81.92,38.95],[-81.95,38.99],[-82.0,39.01],[-82.07,38.96],[-82.16,38.84],[-82.2,38.77],[-82.19,38.72],[-82.18,38.64],[-82.2,38.61],[-82.25,38.59],[-82.29,38.55],[-82.32,38.48],[-82.39,38.43],[-82.5,38.41],[-82.62,38.45],[-82.76,38.54],[-82.84,38.63],[-82.88,38.71],[-83.0,38.71],[-83.2,38.64],[-83.36,38.63],[-83.46,38.68],[-83.54,38.7],[-83.62,38.68],[-83.69,38.65],[-83.75,38.67],[-83.83,38.73],[-83.95,38.77],[-84.11,38.8],[-84.23,38.87],[-84.29,38.97],[-84.36,39.05],[-84.43,39.09],[-84.51,39.1],[-84.59,39.09],[-84.66,39.09],[-84.71,39.13],[-84.77,39.13],[-84.84,39.08],[-84.86,39.04],[-84.84,39.0],[-84.84,38.96],[-84.86,38.93],[-84.85,38.91],[-84.81,38.9],[-84.79,38.87],[-84.8,38.82],[-84.9,38.77],[-85.09,38.71],[-85.14,38.7],[-85.17,38.69],[-85.19,38.69]]]}},{"type":"Feature","properties":{"name":"Ottawa"},"geometry":{"type":"MultiLineString","coordinates":[[[-76.9,45.89],[-76.82,45.88],[-76.75,45.8],[-76.67,45.64],[-76.55,45.54],[-76.41,45.5],[-76.27,45.48],[-76.12,45.5],[-76.0,45.48],[-75.9,45.42],[-75.63,45.45],[-75.17,45.58],[-74.86,45.64],[-74.72,45.65],[-74.58,45.63],[-74.38,45.56],[-74.32,45.53]],[[-77.37,46.06],[-77.27,45.95],[-77.15,45.91],[-76.9,45.89]],[[-77.68,46.19],[-77.37,46.06]],[[-77.68,46.19],[-77.68,46.19]],[[-77.68,46.19],[-77.68,46.19]],[[-79.17,46.83],[-79.01,46.61],[-78.9,46.49],[-78.78,46.39],[-78.46,46.31],[-77.68,46.19]]]}},{"type":"Feature","properties":{"name":"Peace"},"geometry":{"type":"MultiLineString","coordinates":[[[-122.22,56.02],[-122.17,55.97],[-122.12,55.96],[-122.05,55.97],[-121.95,56.02],[-121.83,56.09],[-121.63,56.17],[-121.36,56.24],[-121.04,56.24],[-120.65,56.16],[-120.39,56.12],[-120.24,56.12],[-119.73,56.18],[-119.49,56.23],[-119.3,56.29],[-119.14,56.32],[-119.03,56.3],[-118.98,56.27],[-118.98,56.23],[-118.96,56.19],[-118.92,56.14],[-118.91,56.1],[-118.92,56.07],[-118.87,56.02],[-118.72,55.96],[-118.45,55.93],[-118.07,55.95],[-117.74,56.02],[-117.46,56.15],[-117.27,56.29],[-117.17,56.43],[-117.13,56.54],[-117.14,56.62],[-117.18,56.67],[-117.23,56.7],[-117.23,56.73],[-117.25,56.76],[-117.29,56.79],[-117.32,56.84],[-117.29,56.93],[-117.22,57.03],[-117.21,57.08],[-117.21,57.12],[-117.2,57.14],[-117.17,57.15],[-117.12,57.18],[-117.1,57.23],[-117.11,57.27],[-117.13,57.31],[-117.13,57.36],[-117.08,57.42],[-117.09,57.48],[-117.1,57.51],[-117.09,57.53],[-117.06,57.56],[-117.05,57.6],[-117.08,57.62],[-117.09,57.66],[-117.09,57.69],[-117.09,57.72],[-117.11,57.75],[-117.1,57.77],[-117.11,57.8],[-117.1,57.82],[-117.08,57.84],[-117.08,57.89],[-117.13,57.92],[-117.15,57.97],[-117.12,58.02],[-117.05,58.07],[-116.96,58.1],[-116.83,58.11],[-116.68,58.11],[-116.59,58.11],[-116.57,58.14],[-116.57,58.16],[-116.6,58.19],[-116.61,58.22],[-116.6,58.24],[-116.62,58.26],[-116.64,58.28],[-116.64,58.29],[-116.6,58.31],[-116.54,58.31],[-116.49,58.31],[-116.5,58.28],[-116.48,58.26],[-116.45,58.26],[-116.38,58.29],[-116.27,58.36],[-116.14,58.42],[-116.0,58.45],[-115.77,58.44],[-115.44,58.38],[-115.17,58.36],[-114.97,58.37],[-114.69,58.44],[-114.35,58.58],[-114.09,58.66],[-113.82,58.71]],[[-113.71,58.67],[-113.27,58.78],[-113.13,58.83],[-113.13,58.87],[-113.1,58.89],[-113.03,58.9],[-112.94,58.96],[-112.85,59.05],[-112.77,59.12],[-112.69,59.15],[-112.53,59.14],[-112.28,59.09],[-112.1,59.08],[-112.0,59.1],[-111.94,59.1],[-111.93,59.07],[-111.96,59.03],[-112.04,58.99],[-112.06,58.96],[-112.03,58.94],[-111.97,58.94],[-111.87,58.96],[-111.76,58.95],[-111.64,58.92],[-111.54,58.93],[-111.41,59.01]]]}},{"type":"Feature","properties":{"name":"Pend Oreille"},"geometry":{"type":"LineString","coordinates":[[-117.68,49.02],[-117.41,49.03],[-117.34,49.01],[-117.32,48.96],[-117.34,48.91],[-117.38,48.84],[-117.39,48.75],[-117.36,48.64],[-117.33,48.57],[-117.28,48.53],[-117.25,48.45],[-117.24,48.33],[-117.12,48.24],[-116.9,48.18],[-116.76,48.18],[-116.7,48.23],[-116.65,48.25],[-116.57,48.25]]}},{"type":"Feature","properties":{"name":"Pit"},"geometry":{"type":"LineString","coordinates":[[-120.43,41.71],[-120.46,41.56],[-120.51,41.5],[-120.68,41.45],[-120.97,41.4],[-121.12,41.29],[-121.11,41.13],[-121.13,41.02],[-121.17,40.97],[-121.22,40.98],[-121.28,41.03],[-121.35,41.04],[-121.41,41.01],[-121.5,41.0],[-121.6,41.02],[-121.69,41.02],[-121.76,40.98],[-121.83,40.99],[-121.89,41.02],[-121.93,41.02],[-121.96,40.99],[-121.97,40.95],[-121.95,40.9],[-121.98,40.85],[-122.09,40.78]]}},{"type":"Feature","properties":{"name":"Porcupine"},"geometry":{"type":"LineString","coordinates":[[-139.81,65.65],[-139.73,65.75],[-139.7,65.81],[-139.69,65.9],[-139.7,65.93],[-139.67,65.96],[-139.61,65.99],[-139.49,66.0],[-139.31,66.0],[-139.17,66.02],[-139.07,66.06],[-138.92,66.18],[-138.74,66.38],[-138.55,66.51],[-138.38,66.57],[-138.25,66.64],[-138.16,66.73],[-138.07,66.77],[-137.96,66.77],[-137.89,66.79],[-137.84,66.83],[-137.82,66.86],[-137.83,66.89],[-137.8,66.9],[-137.68,66.93],[-137.6,66.99],[-137.56,67.0],[-137.52,66.99],[-137.5,67.0],[-137.49,67.03],[-137.53,67.05],[-137.6,67.07],[-137.61,67.1],[-137.55,67.15],[-137.56,67.18],[-137.64,67.18],[-137.66,67.2],[-137.7,67.24],[-137.79,67.3],[-137.82,67.34],[-137.78,67.36],[-137.77,67.4],[-137.79,67.44],[-137.86,67.47],[-137.99,67.48],[-138.1,67.5],[-138.2,67.56],[-138.33,67.58],[-138.6,67.58],[-138.63,67.59],[-138.64,67.61],[-138.62,67.63],[-138.63,67.65],[-138.67,67.65],[-139.29,67.55],[-139.67,67.58],[-139.83,67.57],[-139.89,67.55],[-139.91,67.53],[-139.9,67.52],[-139.99,67.54],[-140.11,67.54],[-140.27,67.51],[-140.35,67.49],[-140.36,67.47],[-140.51,67.45],[-140.82,67.44],[-141.1,67.41],[-141.5,67.33],[-141.62,67.29],[-141.66,67.25],[-141.68,67.2],[-141.71,67.17],[-141.74,67.16],[-142.05,67.16],[-142.11,67.17],[-142.13,67.18],[-142.14,67.2],[-142.15,67.21],[-142.18,67.22],[-142.32,67.17],[-142.56,67.05],[-142.86,67.0],[-143.21,67.0],[-143.46,66.99],[-143.61,66.96],[-143.67,66.94],[-143.64,66.91],[-143.64,66.89],[-143.66,66.88],[-143.78,66.9],[-143.85,66.88],[-143.92,66.83],[-144.04,66.8],[-144.21,66.77],[-144.32,66.77],[-144.36,66.8],[-144.39,66.8],[-144.4,66.77],[-144.46,66.76],[-144.58,66.76],[-144.69,66.73],[-144.8,66.67],[-144.91,66.65],[-145.03,66.66],[-145.2,66.65],[-145.45,66.59]]}},{"type":"Feature","properties":{"name":"Potomac"},"geometry":{"type":"LineString","coordinates":[[-78.33,39.64],[-78.18,39.69],[-78.1,39.68],[-78.03,39.63],[-77.96,39.61],[-77.88,39.61],[-77.86,39.6],[-77.87,39.58],[-77.85,39.55],[-77.8,39.52],[-77.78,39.49],[-77.8,39.46],[-77.79,39.44],[-77.76,39.43],[-77.74,39.4],[-77.74,39.35],[-77.67,39.31],[-77.53,39.27],[-77.48,39.22],[-77.5,39.18],[-77.51,39.14],[-77.48,39.11],[-77.3,39.05],[-77.19,38.97],[-77.1,38.94],[-77.05,38.92],[-77.03,38.89]]}},{"type":"Feature","properties":{"name":"P\u00e1nuco"},"geometry":{"type":"LineString","coordinates":[[-98.59,21.98],[-98.47,21.97],[-98.43,21.98],[-98.41,22.02],[-98.38,22.04],[-98.31,22.05],[-98.26,22.07],[-98.22,22.1],[-98.18,22.1],[-98.14,22.06],[-98.1,22.05],[-98.05,22.07],[-98.05,22.11],[-98.05,22.12],[-98.02,22.18],[-97.97,22.21],[-97.87,22.22],[-97.78,22.28]]}},{"type":"Feature","properties":{"name":"R. des Outaouais"},"geometry":{"type":"MultiLineString","coordinates":[[[-76.82,47.52],[-76.89,47.54],[-76.92,47.53],[-76.93,47.49]],[[-77.32,47.57],[-77.36,47.58],[-77.43,47.56],[-77.46,47.56]],[[-78.81,47.66],[-78.99,47.55],[-79.07,47.54],[-79.11,47.57],[-79.23,47.59],[-79.5,47.58]],[[-77.54,47.67],[-77.53,47.74]],[[-77.57,47.83],[-77.62,47.82],[-77.73,47.73],[-77.83,47.73],[-77.93,47.79],[-78.0,47.78],[-78.05,47.71],[-78.13,47.69],[-78.25,47.72],[-78.34,47.76],[-78.41,47.82],[-78.45,47.86],[-78.44,47.9],[-78.49,47.93],[-78.57,47.94],[-78.64,47.92],[-78.7,47.89],[-78.73,47.82],[-78.72,47.71],[-78.72,47.68]]]}},{"type":"Feature","properties":{"name":"Rainy"},"geometry":{"type":"MultiLineString","coordinates":[[[-93.38,48.62],[-93.46,48.56],[-93.56,48.54],[-93.71,48.53],[-93.8,48.55],[-93.85,48.61],[-94.06,48.66],[-94.41,48.7],[-94.62,48.74],[-94.68,48.77],[-94.71,48.81],[-94.71,48.86]],[[-91.63,48.87],[-91.66,48.79],[-91.76,48.76],[-91.93,48.75],[-92.06,48.76],[-92.13,48.79],[-92.32,48.77],[-92.78,48.68]],[[-90.5,49.33],[-90.61,49.22],[-90.59,49.17],[-90.6,49.13],[-90.64,49.09],[-90.76,49.05],[-90.96,49.03],[-91.12,48.97],[-91.32,48.83]]]}},{"type":"Feature","properties":{"name":"Rio Grande"},"geometry":{"type":"MultiLineString","coordinates":[[[-99.17,26.56],[-99.11,26.45],[-99.02,26.4],[-98.87,26.38],[-98.77,26.34],[-98.69,26.28],[-98.6,26.24],[-98.49,26.22],[-98.38,26.18],[-98.28,26.11],[-98.08,26.06],[-97.8,26.04],[-97.59,25.98],[-97.44,25.89],[-97.38,25.87],[-97.36,25.87],[-97.35,25.88],[-97.34,25.91],[-97.28,25.94],[-97.15,25.96]],[[-101.04,29.46],[-101.02,29.4],[-100.92,29.31],[-100.75,29.18],[-100.66,29.07],[-100.64,28.97],[-100.55,28.82],[-100.4,28.61],[-100.33,28.5],[-100.35,28.49],[-100.34,28.43],[-100.3,28.33],[-100.22,28.24],[-100.11,28.17],[-100.0,28.05],[-99.89,27.87],[-99.75,27.73],[-99.6,27.64],[-99.51,27.55],[-99.48,27.47],[-99.49,27.4],[-99.51,27.34],[-99.5,27.29],[-99.46,27.23],[-99.44,27.17],[-99.46,27.08],[-99.46,27.06]],[[-106.57,31.82],[-106.44,31.76],[-106.35,31.68],[-106.26,31.54],[-106.15,31.45],[-106.02,31.4],[-105.81,31.24],[-105.51,30.98],[-105.28,30.81],[-105.1,30.72],[-104.98,30.65],[-104.92,30.58],[-104.84,30.45],[-104.68,30.13],[-104.68,29.99],[-104.62,29.85],[-104.5,29.68],[-104.4,29.57],[-104.31,29.54],[-104.22,29.48],[-104.11,29.39],[-103.99,29.32],[-103.85,29.29],[-103.66,29.21],[-103.42,29.07],[-103.26,29.0],[-103.17,29.0],[-103.09,29.04],[-103.02,29.13],[-102.96,29.19],[-102.89,29.22],[-102.87,29.26],[-102.88,29.32],[-102.83,29.44],[-102.73,29.64],[-102.61,29.75],[-102.48,29.77],[-102.39,29.81],[-102.34,29.86],[-102.27,29.87],[-102.16,29.83],[-101.99,29.8],[-101.75,29.78],[-101.61,29.79],[-101.57,29.81],[-101.55,29.81],[-101.54,29.78],[-101.51,29.77],[-101.44,29.78],[-101.38,29.74],[-101.3,29.63]],[[-107.29,32.91],[-107.24,32.74],[-107.17,32.67],[-107.07,32.65],[-106.98,32.58],[-106.89,32.48],[-106.85,32.4],[-106.85,32.35],[-106.78,32.19],[-106.57,31.82]],[[-107.18,33.17],[-107.28,33.12]],[[-107.43,37.78],[-107.07,37.74],[-106.92,37.81],[-106.81,37.79],[-106.69,37.72],[-106.54,37.68],[-106.37,37.68],[-106.2,37.65],[-106.01,37.58],[-105.88,37.52],[-105.81,37.47],[-105.76,37.41],[-105.74,37.34],[-105.73,37.24],[-105.75,37.12],[-105.74,36.98],[-105.7,36.82],[-105.69,36.65],[-105.72,36.46],[-105.76,36.34],[-105.85,36.24],[-106.01,36.13],[-106.07,36.05],[-106.1,35.95],[-106.17,35.86],[-106.27,35.76],[-106.34,35.65],[-106.39,35.52],[-106.49,35.38],[-106.63,35.22],[-106.69,35.09],[-106.68,34.99],[-106.72,34.78],[-106.8,34.47],[-106.85,34.29],[-106.88,34.27],[-106.89,34.15],[-106.87,33.93],[-106.93,33.75],[-107.05,33.61],[-107.12,33.49],[-107.17,33.36]]]}},{"type":"Feature","properties":{"name":"Rupert"},"geometry":{"type":"MultiLineString","coordinates":[[[-74.82,51.41],[-74.59,51.48],[-74.49,51.49],[-74.44,51.47],[-74.39,51.46],[-74.34,51.46],[-74.3,51.43],[-74.26,51.4],[-74.17,51.38],[-74.07,51.37],[-73.97,51.39],[-73.89,51.35],[-73.85,51.26],[-73.84,51.17],[-73.86,51.1],[-73.82,51.07],[-73.64,51.08]],[[-75.2,51.45],[-75.23,51.49],[-75.23,51.51],[-75.24,51.53],[-75.33,51.54],[-75.48,51.55],[-75.82,51.5],[-76.55,51.36]],[[-78.73,51.5],[-78.69,51.49],[-78.46,51.4],[-78.16,51.36],[-77.71,51.35],[-77.3,51.38],[-76.93,51.44],[-76.82,51.42]]]}},{"type":"Feature","properties":{"name":"R\u00edo Grande de Santiago"},"geometry":{"type":"MultiLineString","coordinates":[[[-102.78,20.31],[-102.79,20.37],[-102.87,20.4],[-103.07,20.44],[-103.12,20.48],[-103.15,20.53],[-103.15,20.59],[-103.19,20.66],[-103.29,20.74],[-103.34,20.79],[-103.33,20.84],[-103.35,20.91],[-103.4,21.0],[-103.44,21.05],[-103.48,21.06],[-103.52,21.04],[-103.59,20.97]],[[-103.71,20.94],[-103.84,20.99],[-103.89,21.03],[-103.88,21.07],[-103.93,21.12],[-104.08,21.21]],[[-104.08,21.21],[-104.18,21.2],[-104.25,21.22],[-104.33,21.26],[-104.36,21.3],[-104.44,21.43],[-104.53,21.5],[-104.63,21.71],[-104.66,21.76],[-104.72,21.82],[-104.78,21.82],[-104.89,21.77],[-105.0,21.73],[-105.02,21.74],[-105.03,21.78]],[[-105.1,21.82],[-105.18,21.8],[-105.21,21.79],[-105.25,21.76],[-105.34,21.71],[-105.41,21.69],[-105.46,21.67]]]}},{"type":"Feature","properties":{"name":"S. Branch Potomac"},"geometry":{"type":"LineString","coordinates":[[-79.57,38.41],[-79.39,38.63],[-79.25,38.9],[-79.16,39.0],[-79.07,39.02],[-78.96,39.12],[-78.82,39.32],[-78.71,39.45],[-78.57,39.53],[-78.5,39.53],[-78.46,39.56],[-78.44,39.6],[-78.41,39.63],[-78.33,39.64]]}},{"type":"Feature","properties":{"name":"Sacramento"},"geometry":{"type":"MultiLineString","coordinates":[[[-121.58,38.66],[-121.51,38.62],[-121.5,38.58],[-121.53,38.53],[-121.53,38.48],[-121.51,38.41],[-121.52,38.37],[-121.55,38.34],[-121.54,38.31],[-121.51,38.27],[-121.54,38.23],[-121.57,38.2],[-121.69,38.15],[-121.71,38.13],[-121.72,38.1],[-121.75,38.08]],[[-122.41,40.72],[-122.43,40.65],[-122.37,40.57],[-122.24,40.47],[-122.18,40.4],[-122.19,40.35],[-122.18,40.33],[-122.15,40.32],[-122.15,40.28],[-122.19,40.22],[-122.18,40.18],[-122.14,40.16],[-122.1,40.07],[-122.06,39.9],[-122.02,39.79],[-121.96,39.75],[-121.96,39.63],[-121.99,39.44],[-122.01,39.32],[-121.99,39.26],[-121.94,39.19],[-121.85,39.09],[-121.81,39.0],[-121.8,38.92],[-121.76,38.85],[-121.7,38.8],[-121.65,38.77],[-121.61,38.77],[-121.58,38.74],[-121.58,38.66]]]}},{"type":"Feature","properties":{"name":"Saint John"},"geometry":{"type":"LineString","coordinates":[[-70.26,46.18],[-70.21,46.31],[-70.16,46.37],[-70.08,46.42],[-70.01,46.49],[-69.96,46.51],[-69.89,46.5],[-69.86,46.52],[-69.87,46.56],[-69.73,46.7],[-69.45,46.94],[-69.26,47.08],[-69.17,47.11],[-69.1,47.12],[-69.05,47.11],[-68.96,47.14],[-68.83,47.2],[-68.67,47.25],[-68.48,47.29],[-68.38,47.32],[-68.36,47.34],[-68.31,47.35],[-68.24,47.35],[-68.1,47.27],[-67.79,47.07],[-67.71,46.98],[-67.7,46.87],[-67.73,46.7],[-67.7,46.58],[-67.63,46.53],[-67.6,46.49],[-67.62,46.46],[-67.6,46.41],[-67.55,46.33],[-67.53,46.23],[-67.54,46.11],[-67.5,46.03],[-67.39,45.99],[-67.29,45.98],[-67.21,45.98],[-67.12,45.96],[-67.02,45.91],[-66.93,45.91],[-66.87,45.96],[-66.8,45.98],[-66.68,45.98],[-66.52,45.9],[-66.39,45.86],[-66.24,45.83],[-66.13,45.76],[-66.07,45.63],[-66.05,45.57],[-66.08,45.52],[-66.18,45.43],[-66.22,45.38],[-66.22,45.36],[-66.18,45.34]]}},{"type":"Feature","properties":{"name":"San Joaquin"},"geometry":{"type":"MultiLineString","coordinates":[[[-119.7,37.0],[-119.78,36.9],[-119.94,36.84],[-120.2,36.81],[-120.39,36.87],[-120.5,37.02],[-120.6,37.12],[-120.69,37.15],[-120.86,37.28],[-121.2,37.65]],[[-118.74,37.1],[-118.81,37.2],[-119.11,37.41],[-119.15,37.44],[-119.19,37.46],[-119.22,37.44],[-119.25,37.41],[-119.32,37.25],[-119.4,37.17],[-119.49,37.15],[-119.55,37.12],[-119.6,37.06]],[[-121.2,37.65],[-121.25,37.7],[-121.28,37.78],[-121.3,37.9],[-121.35,37.97],[-121.45,38.0],[-121.47,38.02],[-121.5,38.04],[-121.53,38.06]]]}},{"type":"Feature","properties":{"name":"Saskatchewan"},"geometry":{"type":"MultiLineString","coordinates":[[[-99.33,53.16],[-99.23,53.18]],[[-105.07,53.24],[-104.9,53.16],[-104.82,53.16],[-104.76,53.19],[-104.57,53.23],[-104.24,53.28],[-104.03,53.34],[-103.89,53.48]],[[-103.42,53.65],[-103.13,53.75],[-103.04,53.81],[-103.07,53.86],[-103.05,53.92],[-102.98,54.01],[-102.9,54.06],[-102.81,54.07],[-102.69,54.05],[-102.43,53.98]],[[-102.38,53.97],[-102.19,53.9],[-102.04,53.88],[-101.87,53.88],[-101.73,53.9],[-101.62,53.94],[-101.55,53.98],[-101.52,54.02],[-101.46,53.99],[-101.38,53.9],[-101.27,53.86],[-101.11,53.87],[-101.04,53.86],[-101.06,53.82],[-101.03,53.76],[-100.95,53.69],[-100.78,53.66],[-100.51,53.67],[-100.37,53.65],[-100.32,53.59]]]}},{"type":"Feature","properties":{"name":"Savannah"},"geometry":{"type":"MultiLineString","coordinates":[[[-82.21,33.66],[-82.01,33.52],[-81.94,33.45],[-81.93,33.39],[-81.91,33.35],[-81.86,33.33],[-81.82,33.27],[-81.78,33.2],[-81.7,33.13],[-81.58,33.07],[-81.49,32.94],[-81.43,32.73],[-81.38,32.61],[-81.29,32.56],[-81.17,32.38],[-81.13,32.27],[-81.14,32.18],[-81.07,32.11],[-80.87,32.03]],[[-82.82,34.37],[-82.59,34.02]]]}},{"type":"Feature","properties":{"name":"Skeena"},"geometry":{"type":"LineString","coordinates":[[-128.57,57.08],[-128.28,56.91],[-127.85,56.72],[-127.62,56.57],[-127.45,56.42],[-127.38,56.32],[-127.43,56.29],[-127.54,56.28],[-127.73,56.29],[-127.86,56.27],[-127.93,56.23],[-127.97,56.17],[-127.96,56.1],[-127.94,56.03],[-127.89,55.97],[-127.89,55.9],[-127.94,55.83],[-127.89,55.78],[-127.75,55.76],[-127.7,55.72],[-127.74,55.67],[-127.72,55.59],[-127.64,55.48],[-127.63,55.4],[-127.67,55.37],[-127.68,55.33],[-127.68,55.27],[-127.72,55.22],[-127.78,55.16],[-127.9,55.13],[-128.08,55.11],[-128.22,55.07],[-128.32,55.02],[-128.37,54.97],[-128.38,54.92],[-128.35,54.87],[-128.29,54.81],[-128.32,54.73],[-128.47,54.57],[-129.48,54.24],[-129.54,54.23],[-129.58,54.23],[-129.63,54.23]]}},{"type":"Feature","properties":{"name":"Slave"},"geometry":{"type":"LineString","coordinates":[[-111.41,59.01],[-111.38,59.15],[-111.41,59.21],[-111.47,59.23],[-111.47,59.26],[-111.4,59.3],[-111.39,59.35],[-111.44,59.41],[-111.45,59.49],[-111.42,59.58],[-111.45,59.68],[-111.57,59.85],[-111.63,59.92],[-111.7,59.97],[-111.8,60.01],[-111.92,60.03],[-112.07,60.03],[-112.21,60.1],[-112.33,60.23],[-112.47,60.32],[-112.52,60.33],[-112.56,60.35],[-112.55,60.36],[-112.51,60.37],[-112.46,60.38],[-112.45,60.41],[-112.46,60.44],[-112.49,60.47],[-112.5,60.49],[-112.51,60.52],[-112.55,60.54],[-112.73,60.59],[-112.84,60.64],[-112.86,60.7],[-112.9,60.74],[-112.93,60.74],[-112.96,60.75],[-112.97,60.79],[-112.98,60.8],[-113.0,60.8],[-113.06,60.78],[-113.13,60.77],[-113.19,60.78],[-113.23,60.83],[-113.25,60.91],[-113.22,60.97],[-113.14,61.02],[-113.13,61.05],[-113.15,61.07],[-113.18,61.09],[-113.19,61.12],[-113.16,61.16],[-113.16,61.17],[-113.18,61.18],[-113.21,61.19],[-113.22,61.21],[-113.21,61.23],[-113.21,61.24],[-113.25,61.25],[-113.32,61.25],[-113.7,61.25]]}},{"type":"Feature","properties":{"name":"Snake"},"geometry":{"type":"MultiLineString","coordinates":[[[-113.47,42.67],[-113.62,42.58],[-113.79,42.54],[-114.01,42.52],[-114.28,42.55],[-114.61,42.63],[-114.81,42.71],[-114.88,42.77],[-114.91,42.83],[-114.91,42.87],[-114.96,42.9],[-115.07,42.91],[-115.14,42.94],[-115.18,42.99],[-115.26,42.99],[-115.39,42.95],[-115.57,42.96],[-115.81,43.0],[-115.92,42.99],[-115.97,42.98],[-116.08,43.02],[-116.26,43.13],[-116.36,43.21],[-116.39,43.27],[-116.44,43.3],[-116.52,43.32],[-116.61,43.36],[-116.71,43.45],[-116.77,43.51],[-116.79,43.56],[-116.87,43.62],[-117.01,43.68],[-117.06,43.73],[-117.02,43.81],[-116.96,43.96],[-116.94,44.04],[-116.96,44.08],[-116.95,44.12],[-116.91,44.16],[-116.91,44.2],[-116.95,44.25],[-117.03,44.28],[-117.14,44.29],[-117.2,44.34],[-117.2,44.44],[-117.12,44.58],[-116.95,44.77],[-116.86,44.91],[-116.84,44.99],[-116.74,45.17],[-116.55,45.46],[-116.48,45.64],[-116.52,45.72],[-116.62,45.8],[-116.76,45.87],[-116.87,45.96],[-116.93,46.06],[-116.95,46.12],[-116.92,46.16],[-116.94,46.23],[-117.01,46.33],[-117.04,46.4],[-117.03,46.43],[-117.07,46.45],[-117.16,46.45],[-117.21,46.47],[-117.22,46.52],[-117.28,46.58],[-117.39,46.66],[-117.5,46.71],[-117.62,46.72],[-117.7,46.7],[-117.76,46.65],[-117.87,46.62],[-118.04,46.59],[-118.21,46.58],[-118.39,46.59],[-118.55,46.53],[-118.69,46.39],[-118.83,46.29],[-119.04,46.21]],[[-112.86,42.81],[-113.02,42.69],[-113.14,42.65],[-113.32,42.65]],[[-111.19,43.34],[-111.35,43.45],[-111.41,43.51],[-111.42,43.56],[-111.59,43.63],[-111.89,43.73],[-112.04,43.71],[-112.03,43.57],[-112.07,43.45],[-112.16,43.34],[-112.31,43.22],[-112.64,43.02]],[[-110.63,43.84],[-110.73,43.62],[-110.78,43.54],[-110.82,43.51],[-110.84,43.48],[-110.82,43.43],[-110.79,43.4],[-110.74,43.38],[-110.73,43.34],[-110.75,43.27],[-110.84,43.23],[-110.98,43.19],[-111.05,43.21]]]}},{"type":"Feature","properties":{"name":"South Saskatchewan"},"geometry":{"type":"MultiLineString","coordinates":[[[-106.85,51.26],[-107.02,51.39],[-107.07,51.46],[-107.06,51.53],[-106.99,51.61],[-106.86,51.69],[-106.78,51.75],[-106.74,51.79],[-106.74,51.85],[-106.76,51.93],[-106.75,51.98],[-106.73,51.99],[-106.71,52.01],[-106.71,52.05],[-106.57,52.2],[-106.29,52.44],[-106.15,52.62],[-106.13,52.72],[-106.1,52.81],[-106.05,52.87],[-105.9,52.93],[-105.65,52.98],[-105.5,53.05],[-105.44,53.12],[-105.37,53.15],[-105.29,53.14],[-105.2,53.16],[-105.07,53.24]],[[-116.42,51.67],[-116.36,51.65],[-116.32,51.61],[-116.27,51.51],[-115.86,51.27],[-115.66,51.19],[-115.53,51.19],[-115.41,51.16],[-115.31,51.09],[-115.1,51.1],[-114.78,51.2],[-114.48,51.2],[-114.2,51.09],[-114.04,51.0],[-114.01,50.91],[-113.94,50.85],[-113.83,50.82],[-113.58,50.8],[-113.45,50.81],[-113.31,50.85],[-113.19,50.84],[-113.09,50.78],[-113.0,50.77],[-112.93,50.79],[-112.81,50.79],[-112.63,50.77],[-112.52,50.73],[-112.49,50.67],[-112.44,50.63],[-112.4,50.63],[-112.36,50.57],[-112.32,50.47],[-112.26,50.42],[-112.2,50.42],[-112.17,50.39],[-112.17,50.35],[-112.15,50.3],[-112.1,50.24],[-112.03,50.21],[-111.94,50.2],[-111.83,50.18],[-111.68,50.12],[-111.61,50.07],[-111.6,50.01],[-111.62,49.97],[-111.64,49.94],[-111.61,49.9],[-111.52,49.91],[-111.42,49.93],[-111.34,50.0],[-111.26,50.04],[-111.19,50.05],[-110.78,50.05],[-110.66,50.06],[-110.68,50.1],[-110.66,50.12],[-110.61,50.13],[-110.58,50.16],[-110.58,50.18],[-110.59,50.21],[-110.63,50.23],[-110.63,50.3],[-110.59,50.4],[-110.53,50.45],[-110.44,50.43],[-110.39,50.46],[-110.39,50.54],[-110.34,50.59],[-110.24,50.62],[-110.16,50.66],[-110.08,50.71],[-110.05,50.75],[-110.07,50.78],[-110.05,50.81],[-110.01,50.84],[-110.0,50.86],[-110.01,50.88],[-109.98,50.91],[-109.9,50.94],[-109.63,50.97],[-109.19,51.0],[-108.93,51.0],[-108.85,50.96],[-108.73,50.94],[-108.58,50.93],[-108.44,50.86],[-108.33,50.74],[-108.2,50.67],[-108.01,50.66]]]}},{"type":"Feature","properties":{"name":"Sprague"},"geometry":{"type":"LineString","coordinates":[[-120.88,42.4],[-121.05,42.44],[-121.44,42.48],[-121.6,42.52],[-121.68,42.58],[-121.78,42.58],[-121.89,42.51],[-121.92,42.48]]}},{"type":"Feature","properties":{"name":"St. Clair"},"geometry":{"type":"LineString","coordinates":[[-82.42,43.02],[-82.49,42.74],[-82.55,42.62],[-82.65,42.56]]}},{"type":"Feature","properties":{"name":"Saint Lawrence"},"geometry":{"type":"LineString","coordinates":[[-74.71,45.0],[-74.76,45.0],[-74.86,45.0],[-75.0,44.97],[-75.18,44.9],[-75.4,44.77],[-75.79,44.5]]}},{"type":"Feature","properties":{"name":"Stikine"},"geometry":{"type":"LineString","coordinates":[[-128.13,57.29],[-127.94,57.37],[-127.83,57.39],[-127.71,57.39],[-127.6,57.43],[-127.6,57.49],[-127.66,57.58],[-127.66,57.64],[-127.62,57.68],[-127.72,57.71],[-127.97,57.72],[-128.13,57.76],[-128.19,57.83],[-128.29,57.89],[-128.43,57.96],[-128.62,57.98],[-128.85,57.95],[-129.04,57.95],[-129.2,57.97],[-129.33,57.96],[-129.45,57.93],[-129.73,57.98],[-130.18,58.09],[-130.48,58.15],[-130.61,58.14],[-130.76,58.1],[-130.94,58.04],[-131.06,57.99],[-131.11,57.94],[-131.19,57.91],[-131.3,57.88],[-131.42,57.82],[-131.6,57.68],[-131.73,57.55],[-131.77,57.47],[-131.76,57.38],[-131.78,57.33],[-131.82,57.33],[-131.84,57.31],[-131.83,57.26],[-131.79,57.21],[-131.72,57.16],[-131.71,57.12],[-131.75,57.09],[-131.77,56.98],[-131.78,56.79],[-131.8,56.75],[-131.83,56.71],[-131.88,56.7],[-132.07,56.71],[-132.21,56.7],[-132.31,56.64],[-132.36,56.63]]}},{"type":"Feature","properties":{"name":"Susitna"},"geometry":{"type":"LineString","coordinates":[[-146.68,62.5],[-146.83,62.58],[-146.88,62.61],[-146.88,62.65],[-146.96,62.68],[-147.1,62.7],[-147.23,62.7],[-147.33,62.67],[-147.49,62.69],[-147.71,62.76],[-147.89,62.81],[-148.13,62.84],[-148.51,62.85],[-148.68,62.84],[-148.76,62.81],[-148.87,62.81],[-148.99,62.84],[-149.19,62.86],[-149.45,62.85],[-149.69,62.8],[-149.91,62.7],[-150.04,62.62],[-150.11,62.52],[-150.16,62.43],[-150.16,62.36],[-150.14,62.25],[-150.14,62.19],[-150.17,62.17],[-150.16,62.14],[-150.11,62.11],[-150.09,62.05],[-150.1,61.97],[-150.17,61.84],[-150.31,61.68],[-150.43,61.58],[-150.51,61.55],[-150.56,61.49],[-150.57,61.36],[-150.57,61.31]]}},{"type":"Feature","properties":{"name":"Tanana"},"geometry":{"type":"LineString","coordinates":[[-142.02,62.03],[-142.07,62.07],[-142.09,62.11],[-142.09,62.17],[-142.05,62.22],[-141.95,62.26],[-141.82,62.31],[-141.74,62.35],[-141.68,62.42],[-141.6,62.48],[-141.49,62.52],[-141.43,62.56],[-141.4,62.6],[-141.41,62.67],[-141.48,62.77],[-141.55,62.83],[-141.63,62.85],[-141.66,62.87],[-141.62,62.91],[-141.74,62.98],[-142.0,63.1],[-142.19,63.17],[-142.3,63.17],[-142.42,63.19],[-142.54,63.23],[-142.63,63.28],[-142.69,63.34],[-142.74,63.37],[-142.81,63.36],[-142.88,63.38],[-142.96,63.42],[-143.04,63.43],[-143.15,63.41],[-143.62,63.4],[-143.79,63.42],[-143.82,63.46],[-143.83,63.5],[-143.8,63.54],[-143.83,63.59],[-143.9,63.64],[-144.1,63.69],[-144.43,63.72],[-144.68,63.79],[-144.84,63.89],[-144.89,63.96],[-144.89,64.0],[-144.91,64.03],[-145.03,64.07],[-145.16,64.08],[-145.29,64.08],[-145.44,64.11],[-145.59,64.16],[-145.73,64.18],[-145.83,64.17],[-146.03,64.19],[-146.31,64.25],[-146.5,64.28],[-146.67,64.26],[-146.93,64.38],[-147.02,64.46],[-147.02,64.52],[-147.08,64.58],[-147.2,64.65],[-147.32,64.71],[-147.46,64.75],[-147.63,64.78],[-147.83,64.8],[-147.99,64.78],[-148.16,64.73],[-148.57,64.62],[-148.8,64.58],[-149.12,64.58],[-149.14,64.59],[-149.14,64.65],[-149.12,64.74],[-149.13,64.78],[-149.16,64.8],[-149.16,64.82],[-149.13,64.85],[-149.14,64.88],[-149.19,64.9],[-149.31,64.91],[-149.5,64.91],[-149.68,64.88],[-149.84,64.81],[-150.08,64.83],[-150.4,64.93],[-150.67,64.98],[-150.89,64.97],[-151.09,64.95],[-151.27,64.9],[-151.42,64.9],[-151.52,64.96],[-151.55,64.99],[-151.54,65.02],[-151.56,65.03],[-151.62,65.02],[-151.68,65.03],[-151.7,65.09],[-151.79,65.13],[-152.05,65.17]]}},{"type":"Feature","properties":{"name":"Tennessee"},"geometry":{"type":"MultiLineString","coordinates":[[[-87.7,34.77],[-87.81,34.76],[-87.96,34.84],[-88.08,34.93],[-88.19,35.01],[-88.31,35.13],[-88.31,35.19],[-88.28,35.24],[-88.22,35.29],[-88.19,35.33],[-88.19,35.37],[-88.14,35.39],[-88.03,35.4],[-87.99,35.42],[-88.02,35.43],[-88.02,35.46],[-87.99,35.51],[-87.99,35.58],[-88.02,35.67],[-88.01,35.77],[-87.96,35.87],[-87.94,35.93],[-87.98,35.95]],[[-83.97,35.87],[-84.23,35.77],[-84.34,35.74],[-84.4,35.74],[-84.46,35.78],[-84.54,35.86],[-84.6,35.8],[-84.63,35.79],[-84.66,35.8],[-84.7,35.75],[-84.77,35.63],[-84.82,35.57],[-84.86,35.56],[-84.89,35.53],[-84.9,35.47],[-84.92,35.45],[-84.96,35.46],[-85.01,35.39],[-85.09,35.24],[-85.18,35.13],[-85.29,35.06],[-85.35,35.05],[-85.37,35.09],[-85.39,35.1],[-85.42,35.05],[-85.46,35.05],[-85.5,35.08],[-85.56,35.08],[-85.63,35.05],[-85.68,35.01],[-85.69,34.96],[-85.84,34.8],[-86.11,34.53],[-86.29,34.4],[-86.38,34.43],[-86.46,34.48],[-86.55,34.56],[-86.67,34.59],[-86.9,34.57]],[[-88.28,37.02],[-88.47,37.09]]]}},{"type":"Feature","properties":{"name":"Teslin"},"geometry":{"type":"MultiLineString","coordinates":[[[-131.21,59.09],[-131.39,59.07],[-131.51,59.08],[-131.69,59.13],[-131.79,59.14],[-131.86,59.18],[-131.93,59.25],[-132.0,59.36],[-132.1,59.61]],[[-133.24,60.45],[-134.29,61.09],[-134.65,61.35],[-134.67,61.45],[-134.74,61.52],[-134.91,61.57]]]}},{"type":"Feature","properties":{"name":"Thelon"},"geometry":{"type":"MultiLineString","coordinates":[[[-105.94,62.36],[-105.66,62.41],[-105.3,62.44],[-104.77,62.46],[-104.59,62.49],[-104.54,62.5],[-104.55,62.52],[-104.6,62.55],[-104.68,62.58],[-104.73,62.59],[-104.76,62.6],[-104.73,62.62],[-104.74,62.66],[-104.76,62.68],[-104.77,62.71],[-104.74,62.73],[-104.76,62.76],[-104.82,62.81],[-104.8,62.86],[-104.77,62.91],[-104.77,62.94],[-104.82,62.95],[-104.85,62.98],[-104.83,63.07]],[[-104.71,63.27],[-104.68,63.35],[-104.61,63.44],[-104.49,63.56],[-104.45,63.63],[-104.5,63.64],[-104.47,63.69],[-104.35,63.77],[-104.21,63.84],[-104.05,63.88],[-103.9,63.97],[-103.77,64.11],[-103.7,64.19],[-103.69,64.23],[-103.53,64.27],[-103.22,64.32],[-102.97,64.33],[-102.78,64.3],[-102.68,64.26],[-102.66,64.21],[-102.63,64.18],[-102.58,64.16],[-102.41,64.18],[-102.1,64.23],[-101.91,64.3],[-101.81,64.41]],[[-94.22,64.08],[-93.77,63.99],[-93.66,63.97]],[[-101.54,64.49],[-100.8,64.6]],[[-97.1,64.76],[-96.73,64.7],[-96.58,64.66],[-96.54,64.61],[-96.5,64.55],[-96.48,64.47],[-96.42,64.4],[-96.27,64.3]]]}},{"type":"Feature","properties":{"name":"Tugaloo"},"geometry":{"type":"LineString","coordinates":[[-83.36,34.71],[-83.17,34.6]]}},{"type":"Feature","properties":{"name":"Verde"},"geometry":{"type":"LineString","coordinates":[[-100.34,22.12],[-100.17,22.03],[-99.99,21.95],[-99.9,21.86],[-99.84,21.76],[-99.78,21.7],[-99.73,21.7],[-99.69,21.69],[-99.66,21.66],[-99.62,21.67],[-99.56,21.72],[-99.46,21.72],[-99.32,21.67],[-99.19,21.7],[-99.06,21.8],[-98.95,21.85],[-98.87,21.85],[-98.81,21.89],[-98.77,21.96],[-98.73,21.99],[-98.66,21.98],[-98.59,21.98]]}},{"type":"Feature","properties":{"name":"Wabash"},"geometry":{"type":"LineString","coordinates":[[-84.75,40.36],[-84.65,40.36],[-84.64,40.37],[-84.72,40.42],[-84.76,40.44],[-84.77,40.48],[-84.76,40.52],[-84.79,40.57],[-84.89,40.59],[-85.01,40.65],[-85.16,40.75],[-85.32,40.83],[-85.49,40.87],[-85.68,40.86],[-85.88,40.8],[-86.11,40.76],[-86.38,40.75],[-86.62,40.66],[-86.82,40.49],[-86.95,40.41],[-87.03,40.41],[-87.12,40.39],[-87.22,40.34],[-87.4,40.21],[-87.45,40.13],[-87.44,40.02],[-87.42,39.94],[-87.39,39.89],[-87.38,39.81],[-87.39,39.68],[-87.41,39.57],[-87.45,39.47],[-87.51,39.39],[-87.58,39.34],[-87.61,39.29],[-87.6,39.23],[-87.61,39.19],[-87.65,39.17],[-87.63,39.11],[-87.57,39.01],[-87.53,38.91],[-87.52,38.81],[-87.53,38.74],[-87.58,38.68],[-87.64,38.54],[-87.68,38.49],[-87.74,38.47],[-87.78,38.42],[-87.83,38.34],[-87.87,38.3],[-87.92,38.3],[-87.96,38.28],[-87.98,38.25],[-87.98,38.21],[-87.95,38.18],[-87.96,38.14],[-88.01,38.11],[-88.01,38.1],[-87.99,38.09],[-88.0,38.07],[-88.03,38.06],[-88.04,38.01],[-88.04,37.94],[-88.06,37.9],[-88.09,37.9],[-88.1,37.88],[-88.04,37.79]]}},{"type":"Feature","properties":{"name":"Willamette"},"geometry":{"type":"LineString","coordinates":[[-122.09,43.42],[-122.22,43.49],[-122.37,43.52],[-122.42,43.57],[-122.43,43.67],[-122.46,43.75],[-122.52,43.79],[-122.68,43.89],[-122.96,44.02],[-123.12,44.15],[-123.18,44.32],[-123.22,44.51],[-123.19,44.6],[-123.1,44.64],[-123.08,44.68],[-123.11,44.71],[-123.12,44.75],[-123.09,44.8],[-123.1,44.84],[-123.14,44.85],[-123.12,44.89],[-123.05,44.95],[-123.02,45.0],[-123.05,45.04],[-123.04,45.08],[-122.99,45.12],[-122.99,45.16],[-123.02,45.2],[-123.02,45.24],[-122.98,45.27],[-122.9,45.29],[-122.72,45.31],[-122.62,45.37],[-122.6,45.43],[-122.63,45.5],[-122.68,45.56],[-122.73,45.6],[-122.75,45.65],[-122.73,45.67]]}},{"type":"Feature","properties":{"name":"Winnipeg"},"geometry":{"type":"MultiLineString","coordinates":[[[-94.61,49.99],[-94.65,50.02],[-94.65,50.06],[-94.64,50.1],[-94.67,50.13],[-94.75,50.14],[-94.81,50.15],[-94.93,50.13],[-95.0,50.14],[-95.01,50.18],[-95.07,50.22],[-95.18,50.26],[-95.21,50.34],[-95.28,50.37],[-95.4,50.37],[-95.51,50.32],[-95.6,50.23],[-95.73,50.17],[-95.88,50.15],[-95.99,50.15],[-96.04,50.17],[-96.05,50.2],[-96.03,50.28]],[[-95.99,50.4],[-96.0,50.45],[-96.08,50.51],[-96.3,50.62]]]}},{"type":"Feature","properties":{"name":"Yadkin"},"geometry":{"type":"LineString","coordinates":[[-81.58,36.07],[-81.52,36.05],[-81.47,36.06],[-81.35,36.11],[-80.9,36.23],[-80.67,36.26],[-80.49,36.24],[-80.46,36.23]]}},{"type":"Feature","properties":{"name":"Yukon"},"geometry":{"type":"MultiLineString","coordinates":[[[-134.92,61.57],[-134.87,61.63],[-134.89,61.69],[-134.95,61.76],[-134.96,61.82],[-134.94,61.86],[-134.94,61.89],[-134.96,61.91],[-135.12,61.96],[-135.42,62.02],[-135.63,62.05],[-135.75,62.03],[-135.93,62.05],[-136.31,62.12],[-136.36,62.15],[-136.38,62.2],[-136.35,62.28],[-136.58,62.43],[-137.36,62.78],[-137.45,62.81],[-137.73,62.82],[-138.4,62.8],[-139.24,62.97],[-139.42,63.01],[-139.53,63.07],[-139.56,63.16],[-139.54,63.23],[-139.47,63.29],[-139.51,63.35],[-139.65,63.43],[-139.73,63.51],[-139.76,63.61],[-139.76,63.67],[-139.73,63.71],[-139.72,63.75],[-139.74,63.8],[-139.74,63.87],[-139.72,63.93],[-139.65,63.98],[-139.54,64.02],[-139.48,64.06],[-139.48,64.1],[-139.51,64.16],[-139.59,64.23],[-139.85,64.3],[-140.3,64.37],[-140.45,64.4],[-140.48,64.43],[-140.47,64.45],[-140.46,64.5],[-140.48,64.53],[-140.55,64.52],[-140.59,64.53],[-140.61,64.56],[-140.65,64.57],[-140.71,64.57],[-140.73,64.58],[-140.72,64.62],[-140.75,64.63],[-140.8,64.62],[-140.88,64.64],[-140.93,64.67],[-141.01,64.69],[-141.06,64.73],[-141.06,64.75],[-141.09,64.77],[-141.16,64.8],[-141.18,64.83],[-141.13,64.87],[-141.13,64.89],[-141.18,64.89],[-141.2,64.91],[-141.19,64.94],[-141.23,64.95],[-141.33,64.95],[-141.37,64.97],[-141.37,65.04],[-141.4,65.09],[-141.53,65.13],[-141.77,65.18],[-141.92,65.24],[-142.0,65.3],[-142.15,65.33],[-142.36,65.34],[-142.5,65.36],[-142.58,65.39],[-142.65,65.39],[-142.74,65.37],[-142.93,65.35],[-143.23,65.36],[-143.45,65.38],[-143.59,65.43],[-143.67,65.47],[-143.7,65.52],[-143.78,65.55],[-143.92,65.58],[-144.02,65.61],[-144.09,65.66],[-144.09,65.72],[-144.03,65.81],[-144.02,65.88],[-144.05,65.91],[-144.25,66.03],[-144.62,66.22],[-144.83,66.33],[-144.87,66.39],[-145.0,66.45],[-145.22,66.54],[-145.45,66.59],[-145.83,66.61]],[[-163.26,62.02],[-163.24,61.94],[-163.24,61.89],[-163.29,61.85],[-163.39,61.83],[-163.54,61.83],[-163.64,61.82],[-163.7,61.78],[-163.77,61.78],[-163.84,61.8],[-163.84,61.83],[-163.86,61.85],[-163.9,61.85],[-163.96,61.84],[-164.0,61.85],[-164.03,61.89],[-164.09,61.88],[-164.18,61.82],[-164.26,61.79],[-164.33,61.8],[-164.43,61.78],[-164.56,61.74],[-164.65,61.74],[-164.75,61.76],[-164.83,61.74],[-164.88,61.7],[-164.87,61.67],[-164.77,61.63],[-164.74,61.59],[-164.78,61.55],[-164.89,61.51],[-165.01,61.48],[-165.09,61.44],[-165.19,61.39],[-165.21,61.33],[-165.2,61.29],[-165.24,61.27]],[[-163.26,62.02],[-163.43,62.06],[-163.73,62.09],[-163.9,62.13],[-163.95,62.18],[-163.95,62.25],[-163.89,62.33],[-163.86,62.39],[-163.86,62.45],[-163.93,62.53],[-164.07,62.64],[-164.22,62.71],[-164.48,62.75],[-164.52,62.74],[-164.59,62.71]],[[-145.83,66.61],[-146.66,66.51],[-147.02,66.44],[-147.16,66.39],[-147.32,66.35],[-147.51,66.34],[-147.6,66.32],[-147.58,66.28],[-147.75,66.26],[-148.08,66.26],[-148.36,66.22],[-148.6,66.16],[-148.73,66.1],[-148.76,66.07],[-148.79,66.06],[-148.81,66.09],[-148.87,66.09],[-148.97,66.08],[-149.01,66.06],[-149.0,66.03],[-149.05,66.01],[-149.17,65.99],[-149.25,65.96],[-149.28,65.9],[-149.44,65.89],[-149.71,65.91],[-149.92,65.89],[-150.06,65.83],[-150.05,65.8],[-149.89,65.8],[-149.83,65.76],[-149.86,65.68],[-149.93,65.65],[-150.04,65.67],[-150.13,65.64],[-150.18,65.57],[-150.32,65.52],[-150.55,65.51],[-150.79,65.45],[-151.05,65.34],[-151.4,65.26],[-152.05,65.17],[-152.35,65.12],[-152.53,65.13],[-152.7,65.18],[-152.86,65.2],[-153.01,65.19],[-153.13,65.17],[-153.21,65.12],[-153.33,65.11],[-153.48,65.13],[-153.74,65.08],[-154.12,64.98],[-154.4,64.93],[-154.58,64.94],[-154.85,64.9],[-155.13,64.87],[-155.38,64.79],[-155.58,64.76],[-155.75,64.76],[-156.0,64.72],[-156.2,64.71],[-156.42,64.68],[-156.73,64.66],[-156.76,64.7],[-156.81,64.72],[-156.92,64.73],[-156.99,64.76],[-157.04,64.79],[-157.27,64.83],[-157.4,64.82],[-157.51,64.84],[-157.77,64.85],[-157.84,64.87],[-157.91,64.86],[-158.0,64.8],[-158.17,64.68],[-158.29,64.64],[-158.5,64.46],[-158.68,64.34],[-158.69,64.31],[-158.66,64.22],[-158.67,64.14],[-158.73,64.06],[-158.83,63.99],[-159.01,63.92],[-159.15,63.88],[-159.2,63.85],[-159.22,63.8],[-159.26,63.77],[-159.32,63.74],[-159.39,63.68],[-159.46,63.57],[-159.48,63.49],[-159.45,63.44],[-159.5,63.37],[-159.64,63.3],[-159.73,63.21],[-159.75,63.11],[-159.83,63.03],[-159.94,62.99],[-160.02,62.92],[-160.05,62.82],[-160.09,62.76],[-160.14,62.72],[-160.17,62.66],[-160.17,62.59],[-160.13,62.52],[-160.06,62.47],[-160.01,62.41],[-159.98,62.37],[-159.96,62.32],[-159.96,62.28],[-159.91,62.25],[-159.81,62.24],[-159.74,62.21],[-159.73,62.19],[-159.74,62.15],[-159.78,62.11],[-159.85,62.09],[-159.95,62.07],[-160.03,62.03],[-160.09,61.97],[-160.34,61.94],[-160.76,61.94],[-161.07,61.91],[-161.25,61.85],[-161.34,61.81],[-161.33,61.76],[-161.35,61.72],[-161.4,61.67],[-161.53,61.64],[-161.75,61.62],[-161.83,61.6],[-161.92,61.58],[-161.96,61.6],[-161.96,61.66],[-162.02,61.74],[-162.13,61.86],[-162.25,61.92],[-162.37,61.92],[-162.44,61.95],[-162.47,61.99],[-162.53,62.01],[-162.61,61.98],[-162.67,61.96],[-162.69,61.92],[-162.74,61.92],[-162.81,61.94],[-162.89,61.94],[-162.96,61.91],[-163.04,61.91],[-163.13,61.92],[-163.2,61.96],[-163.26,62.02]],[[-145.83,66.61],[-145.83,66.61]],[[-145.83,66.61],[-145.83,66.61]]]}},{"type":"Feature","properties":{"name":""},"geometry":{"type":"MultiLineString","coordinates":[[[-103.55,58.46],[-103.67,58.54]],[[-103.79,58.69],[-103.96,58.77],[-104.0,58.81],[-103.96,58.83],[-103.95,58.87],[-103.96,58.93],[-104.14,58.98],[-104.5,59.02],[-104.79,59.04],[-104.92,59.08],[-104.95,59.14],[-105.01,59.17]],[[-105.55,59.15],[-105.57,59.22],[-105.69,59.25],[-106.02,59.27]]]}},{"type":"Feature","properties":{"name":""},"geometry":{"type":"LineString","coordinates":[[-137.0,61.23],[-137.06,60.99],[-137.07,60.95],[-137.09,60.91],[-137.18,60.87],[-137.35,60.82],[-137.51,60.8],[-137.66,60.79],[-137.77,60.76],[-137.82,60.69],[-137.84,60.61],[-137.84,60.52],[-137.88,60.41],[-137.97,60.29],[-138.0,60.23],[-137.97,60.18],[-137.86,60.07],[-137.85,60.03],[-137.86,59.98],[-137.97,59.93],[-137.99,59.88],[-137.94,59.85],[-137.93,59.81],[-137.97,59.78],[-137.97,59.74],[-137.92,59.68],[-137.83,59.59],[-137.82,59.54],[-137.82,59.51],[-137.97,59.46],[-137.99,59.45],[-138.02,59.44],[-138.06,59.44],[-138.18,59.4],[-138.23,59.37],[-138.26,59.32],[-138.25,59.29],[-138.23,59.28],[-138.21,59.27],[-138.2,59.25],[-138.18,59.22],[-138.18,59.2],[-138.19,59.19],[-138.2,59.18],[-138.22,59.17],[-138.24,59.18],[-138.44,59.18],[-138.48,59.18],[-138.51,59.17]]}},{"type":"Feature","properties":{"name":""},"geometry":{"type":"LineString","coordinates":[[-123.47,65.15],[-123.74,65.06],[-124.21,65.03],[-124.97,65.01],[-125.41,64.98],[-125.62,64.9]]}},{"type":"Feature","properties":{"name":""},"geometry":{"type":"LineString","coordinates":[[-72.99,46.18],[-73.08,46.16],[-73.15,46.12],[-73.18,46.07],[-73.16,46.04]]}},{"type":"Feature","properties":{"name":""},"geometry":{"type":"MultiLineString","coordinates":[[[-103.45,61.37],[-103.47,61.28],[-103.55,61.21],[-103.7,61.13],[-103.76,61.05],[-103.72,60.95]],[[-103.16,61.84],[-103.24,61.77],[-103.25,61.73],[-103.22,61.68]],[[-99.62,62.3],[-98.57,62.25],[-98.21,62.25],[-98.18,62.28],[-98.21,62.38],[-98.35,62.62]],[[-101.37,62.35],[-101.32,62.34]],[[-100.73,62.36],[-100.55,62.36]],[[-102.74,62.41],[-102.92,62.32]],[[-101.83,62.52],[-101.53,62.66]],[[-102.03,62.92],[-102.12,62.91],[-102.18,62.88],[-102.25,62.83],[-102.38,62.79],[-102.66,62.76]],[[-97.63,62.98],[-97.61,63.05],[-97.57,63.09],[-97.46,63.16]],[[-97.29,63.51],[-97.24,63.57],[-97.18,63.59],[-97.11,63.59],[-97.08,63.6],[-97.07,63.63],[-97.01,63.64],[-96.95,63.64]],[[-95.88,63.66],[-95.81,63.67],[-95.8,63.69],[-95.81,63.72],[-95.8,63.75],[-95.72,63.77],[-95.68,63.8],[-95.68,63.85],[-95.63,63.9],[-95.54,63.96],[-95.49,64.0],[-95.5,64.05]]]}},{"type":"Feature","properties":{"name":""},"geometry":{"type":"LineString","coordinates":[[-101.16,62.37],[-101.32,62.34]]}}]}